stationid,neighborhood,boro,zipcode,station name,latitude,longitude
3508,Harlem,Manhattan,10027,St Nicholas Ave & Manhattan Ave,40.809725,-73.953149
3621,Astoria,Queens,11102,27 Ave & 9 St,40.7739825,-73.9309134
3492,East Harlem,Manhattan,10035,E 118 St & Park Ave,40.8005385,-73.9419949
3946,Harlem,Manhattan,10040,St Nicholas Ave & W 137 St,40.818477,-73.947568
3081,,Brooklyn,11206,Graham Ave & Grand St,40.711863,-73.944024
3738,Lower East Side,Manhattan,10002,Delancey St & Eldridge St,40.719383,-73.991479
501,Murray Hill,Manhattan,10017,FDR Drive & E 35 St,40.744219,-73.97121214
3737,Lower East Side,Manhattan,10002,Stanton St & Norfolk St,40.720747,-73.986274
4024,Harlem,Manhattan,10039,Macombs Pl & W 152 St,40.826406,-73.937948
3100,Greenpoint,Brooklyn,11222,Nassau Ave & Newell St,40.724812564400175,-73.94752621650696
443,,Brooklyn,11249,Bedford Ave & S 9 St,40.70853074,-73.96408963
302,East Village,Manhattan,10009,Avenue D & E 3 St,40.72082834,-73.97793172
3896,Ridgewood,Queens,11385,Madison St & Seneca Ave,40.70183,-73.90625
3179,,Brooklyn,11206,Park Ave & Marcus Garvey Blvd,40.698617,-73.941342
3242,Brooklyn Heights,Brooklyn,11217,Schermerhorn St & Court St,40.69102925677968,-73.99183362722397
3363,East Harlem,Manhattan,10029,E 102 St & Park Ave,40.7904828,-73.95033068
484,Midtown East,Manhattan,10036,W 44 St & 5 Ave,40.75500254,-73.98014437
3905,Washington Square Village,Manhattan,10003,4 Ave & E 12 St,40.732647,-73.99011
258,Fort Greene,Brooklyn,11221,DeKalb Ave & Vanderbilt Ave,40.68940747,-73.96885458
455,Turtle Bay,Manhattan,10017,1 Ave & E 44 St,40.75001986,-73.96905301
3246,Brooklyn Heights,Brooklyn,11201,Montague St & Clinton St,40.694281141397326,-73.99230033159256
3861,Bushwick,Brooklyn,11237,Menahan St & Wyckoff Ave,40.70113,-73.91422
465,Theater District,Manhattan,10036,Broadway & W 41 St,40.75513557,-73.98658032
3175,Upper West Side,Manhattan,10023,W 70 St & Amsterdam Ave,40.77748046,-73.98288594
514,Hudson Yards,Manhattan,10003,12 Ave & W 40 St,40.76087502,-74.00277668
3263,East Village,Manhattan,,Cooper Square & Astor Pl,40.72951496224949,-73.99075269699097
3498,East Harlem,Manhattan,10035,Pleasant Ave & E 120 St,40.7974772,-73.9311847
3241,Bedford-Stuyvesant,Brooklyn,11216,Monroe St & Tompkins Ave,40.686203,-73.944694
3173,Upper West Side,Manhattan,10069,Riverside Blvd & W 67 St,40.777507027547976,-73.98888587951659
3687,Kips Bay,Manhattan,10016,E 33 St & 1 Ave,40.74322681432173,-73.97449783980846
3913,,Brooklyn,11251,Sands St Gate,40.699569,-73.979827
3721,,Queens,11101,31 St & Newtown Ave,40.7675487799971,-73.9209334552288
325,Gramercy,Manhattan,10003,E 19 St & 3 Ave,40.73624527,-73.98473765
341,Lower East Side,Manhattan,10002,Stanton St & Mangin St,40.71782143,-73.97628939
164,Turtle Bay,Manhattan,10017,E 47 St & 2 Ave,40.75323098,-73.97032517
3435,Little Italy,Manhattan,10013,Grand St & Elizabeth St,40.718822,-73.99596
2012,Kips Bay,Manhattan,10010,E 27 St & 1 Ave,40.739445,-73.976806
518,Murray Hill,Manhattan,10016,E 39 St & 2 Ave,40.74780373,-73.9734419
3893,Ocean Hill,Brooklyn,11233,Rockaway Ave & Bainbridge St,40.68319988172761,-73.91166642308235
3312,Yorkville,Manhattan,10128,1 Ave & E 94 St,40.7817212,-73.94594
297,Gramercy,Manhattan,10003,E 15 St & 3 Ave,40.734232,-73.986923
4057,Washington Heights,Manhattan,10032,Amsterdam Ave & W 167 St,40.839443,-73.937044
489,Chelsea,Manhattan,10019,10 Ave & W 28 St,40.75066386,-74.00176802
161,Greenwich Village,Manhattan,10003,LaGuardia Pl & W 3 St,40.72917025,-73.99810231
173,Theater District,Manhattan,10019,Broadway & W 49 St,40.76068327096592,-73.9845272898674
4032,Bronx County,The Bronx,10455,E 155 St & Courtlandt Ave,40.82057,-73.917579
305,Midtown East,Manhattan,10022,E 58 St & 3 Ave,40.76095756,-73.96724467
490,Chelsea,Manhattan,10001,8 Ave & W 33 St,40.751551,-73.993934
533,Garment District,Manhattan,10019,Broadway & W 38 St,40.75299641,-73.98721619
3697,Upper West Side,Manhattan,10069,W 64 St & Thelonious Monk Circle,40.77515953434235,-73.98918695747852
311,Lower East Side,Manhattan,10002,Norfolk St & Broome St,40.7172274,-73.98802084
259,Financial District,Manhattan,10004,South St & Whitehall St,40.70122128,-74.01234218
3283,Upper West Side,Manhattan,10024,W 89 St & Columbus Ave,40.7882213,-73.97041561
426,Battery Park City,Manhattan,10282,West St & Chambers St,40.71754834,-74.01322069
3087,Williamsburg,Brooklyn,11211,Metropolitan Ave & Meeker Ave,40.71413311,-73.95234386
529,Theater District,Manhattan,10003,W 42 St & 8 Ave,40.7575699,-73.99098507
3494,East Harlem,Manhattan,10029,E 115 St & Lexington Ave,40.797911,-73.9423
4059,Washington Heights,Manhattan,10032,W 171 St & St. Nicholas Ave,40.842941,-73.938631
3452,Williamsburg,Brooklyn,11211,Bayard St & Leonard St,40.71915571696044,-73.94885390996933
3985,Bronx County,The Bronx,10456,E 160 St & Tinton Ave,40.820302,-73.903944
293,NoHo,Manhattan,10003,Lafayette St & E 8 St,40.73020660529954,-73.99102628231049
3372,Upper East Side,Manhattan,10021,E 74 St & 1 Ave,40.7689738,-73.95482273
3422,Columbia Street Waterfront District,Brooklyn,11231,Columbia St & Degraw St,40.6859296,-74.00242364
3593,,Queens,11106,31 St & Broadway,40.761584,-73.925921
476,Kips Bay,Manhattan,10016,E 31 St & 3 Ave,40.74394314,-73.97966069
422,Hell's Kitchen,Manhattan,10018,W 59 St & 10 Ave,40.770513,-73.988038
363,Battery Park City,Manhattan,10280,West Thames St,40.70834698,-74.01713445
3305,Yorkville,Manhattan,10128,E 91 St & 2 Ave,40.78112229934166,-73.94965589046478
3497,East Harlem,Manhattan,10029,Pleasant Ave & E 116 St,40.7949879,-73.9333349
242,Fort Greene,Brooklyn,11238,Carlton Ave & Flushing Ave,40.697787,-73.973736
334,Chelsea,Manhattan,10011,W 20 St & 7 Ave,40.74238787,-73.99726235
3416,Park Slope,Brooklyn,11217,7 Ave & Park Pl,40.6776147,-73.97324283
260,Financial District,Manhattan,10004,Broad St & Bridge St,40.70365182,-74.01167797
3314,Upper West Side,Manhattan,10025,W 95 St & Broadway,40.7937704,-73.971888
3398,Carroll Gardens,Brooklyn,11231,Smith St & 9 St,40.6746957,-73.99785768
3355,Upper East Side,Manhattan,10021,E 66 St & Madison Ave,40.76800889305947,-73.96845281124115
3101,Greenpoint,Brooklyn,11211,N 12 St & Bedford Ave,40.72079821,-73.95484712
340,Two Bridges,Manhattan,10002,Madison St & Clinton St,40.71269042,-73.98776323
2000,DUMBO,Brooklyn,11201,Front St & Washington St,40.70255088,-73.98940236
473,Lower East Side,Manhattan,10012,Rivington St & Chrystie St,40.72110063,-73.9919254
3820,,Brooklyn,11221,Willoughby Ave & Myrtle Ave,40.69757,-73.93098
3345,East Harlem,Manhattan,10037,Madison Ave & E 99 St,40.78948541553215,-73.95242929458618
2006,,Manhattan,10107,Central Park S & 6 Ave,40.76590936,-73.97634151
477,Theater District,Manhattan,10036,W 41 St & 8 Ave,40.75640548,-73.9900262
3903,Bushwick,Brooklyn,11221,Jefferson Ave & Evergreen Ave,40.68989,-73.91458
252,Greenwich Village,Manhattan,10011,MacDougal St & Washington Sq,40.73226398,-73.99852205
3834,Bushwick,Brooklyn,11237,Irving Ave & Halsey St,40.69467,-73.90663
494,Chelsea,Manhattan,10017,W 26 St & 8 Ave,40.74734825,-73.99723551
3699,Hell's Kitchen,Manhattan,10019,W 50 St & 9 Ave,40.76360467795863,-73.98917958140373
3934,Harlem,Manhattan,10030,St Nicholas Ave & E 134 St,40.816234,-73.948222
478,Hell's Kitchen,Manhattan,10018,11 Ave & W 41 St,40.76030096,-73.99884222
3309,East Harlem,Manhattan,10129,E 97 St & 3 Ave,40.7859201,-73.94860294
462,Chelsea,Manhattan,10011,W 22 St & 10 Ave,40.74691959,-74.00451887
303,SoHo,Manhattan,10012,Mercer St & Spring St,40.72362738,-73.99949601
3628,Harlem,Manhattan,10026,Lenox Ave & W 117 St,40.8025566,-73.9490782
356,Lower East Side,Manhattan,10002,Bialystoker Pl & Delancey St,40.71622644,-73.98261206
3709,Chelsea,Manhattan,10011,W 15 St & 6 Ave,40.738046142482766,-73.99642959237099
447,Hell's Kitchen,Manhattan,10019,8 Ave & W 52 St,40.76370739,-73.9851615
4025,Harlem,Manhattan,10031,Edgecombe Ave & W 150 St,40.826881,-73.941427
3016,Williamsburg,Brooklyn,11249,Kent Ave & N 7 St,40.72036775298455,-73.96165072917938
3562,Prospect Heights,Brooklyn,11238,Classon Ave & St Marks Ave,40.6765198,-73.9596082
3042,Bedford-Stuyvesant,Brooklyn,11233,Fulton St & Utica Ave,40.6794268,-73.9298911
3647,Sunnyside,Queens,11101,48 Ave & 30 Pl,40.74128309355993,-73.93725872039794
236,East Village,Manhattan,10003,St Marks Pl & 2 Ave,40.7284186,-73.98713956
3068,,Brooklyn,11211,Humboldt St & Varet St,40.7031724,-73.940636
417,Tribeca,Manhattan,10007,Barclay St & Church St,40.71291224,-74.01020234
3151,Upper East Side,Manhattan,10075,E 81 St & York Ave,40.7728384,-73.94989233
4044,Garment District,Manhattan,10018,8 Ave & W 38 St,40.75461,-73.99177
251,Little Italy,Manhattan,10012,Mott St & Prince St,40.72317958,-73.99480012
3160,,Manhattan,10023,Central Park West & W 76 St,40.77896784,-73.97374737
3777,Bushwick,Brooklyn,11221,Stockholm St & Wilson Ave,40.699304,-73.923044
3477,Sunset Park,Brooklyn,11232,39 St & 2 Ave,40.65539977447831,-74.01062786579132
419,Fort Greene,Brooklyn,11205,Carlton Ave & Park Ave,40.69580705,-73.97355569
120,Bedford-Stuyvesant,Brooklyn,11221,Lexington Ave & Classon Ave,40.68676793,-73.95928168
3080,Williamsburg,Brooklyn,11211,S 4 St & Rodney St,40.70934,-73.95608
3558,Prospect Heights,Brooklyn,11213,Bergen St & Vanderbilt Ave,40.6794388,-73.9680438
499,Columbus Circle,Manhattan,10034,Broadway & W 60 St,40.76915505,-73.98191841
439,East Village,Manhattan,10009,E 4 St & 2 Ave,40.7262807,-73.98978041
372,Clinton Hill,Brooklyn,11225,Franklin Ave & Myrtle Ave,40.694546087246025,-73.95801365375519
248,Tribeca,Manhattan,10013,Laight St & Hudson St,40.72185379,-74.00771779
3495,East Harlem,Manhattan,10029,E 114 St & 1 Ave,40.7945663,-73.9362541
324,Downtown Brooklyn,Brooklyn,11221,DeKalb Ave & Hudson Ave,40.689888,-73.981013
3547,Manhattanville,Manhattan,10115,Broadway & Moylan Pl,40.8143256,-73.9590255
392,Downtown Brooklyn,Brooklyn,11201,Jay St & Tech Pl,40.695065,-73.987167
3093,Williamsburg,Brooklyn,11249,N 6 St & Bedford Ave,40.71745169,-73.95850939
3147,Yorkville,Manhattan,10028,E 85 St & 3 Ave,40.77801203,-73.95407149
327,Battery Park City,Manhattan,10282,Vesey Pl & River Terrace,40.7153379,-74.01658354
3617,,Queens,11101,28 Ave & 35 St,40.7671,-73.9169858
3980,Hamilton Heights,Manhattan,10040,Amsterdam Ave & W 152 St,40.829523,-73.944279
3845,Bushwick,Brooklyn,11237,Irving Ave & Harman St,40.70108,-73.9179
3823,,Brooklyn,11206,Beaver St & Fayette St,40.70099,-73.93921
2003,Stuy Town,Manhattan,10009,1 Ave & E 18 St,40.73381219196632,-73.98054420948029
459,Chelsea,Manhattan,10011,W 20 St & 11 Ave,40.746745,-74.007756
3970,Bronx County,The Bronx,10455,Melrose Ave & E 154 St,40.819609,-73.916071
2008,Battery Park City,Manhattan,10280,Little West St & 1 Pl,40.70569254,-74.01677685
3994,East Harlem,Manhattan,10035,2 Ave & E 125 St,40.802554,-73.933509
3963,Bronx County,The Bronx,10451,Melrose Ave & E 150 St,40.816827,-73.917338
4071,Washington Heights,Manhattan,10032,Broadway & W 160 St,40.835775,-73.9434
237,East Village,Manhattan,10009,E 11 St & 2 Ave,40.73047309,-73.98672378
3408,Cobble Hill Historic District,Brooklyn,11201,Congress St & Clinton St,40.6881529,-73.99520919
3467,SoHo,Manhattan,10012,W Broadway & Spring St,40.72494672359416,-74.00165855884552
458,Chelsea,Manhattan,10001,11 Ave & W 27 St,40.751396,-74.005226
3096,Greenpoint,Brooklyn,11211,Union Ave & N 12 St,40.71924,-73.95242
3680,Midtown East,Manhattan,10017,E 43 St & 5 Ave,40.754120810779256,-73.98025184869766
450,Hell's Kitchen,Manhattan,10019,W 49 St & 8 Ave,40.76227205,-73.98788205
496,Union Square,Manhattan,10003,E 16 St & 5 Ave,40.73726186,-73.99238967
3156,Lenox Hill,Manhattan,10021,E 72 St & York Ave,40.76663814,-73.95348296
3505,East Harlem,Manhattan,10035,Lexington Ave & E 127 St,40.805726,-73.936322
2002,Greenpoint,Brooklyn,11211,Wythe Ave & Metropolitan Ave,40.716887,-73.963198
3300,,Brooklyn,11215,Prospect Park West & 8 St,40.66514681533792,-73.97637605667114
4123,Upper West Side,Manhattan,10025,Central Park W & W 103 St,40.79603684159984,-73.96158903853575
3765,,Brooklyn,11211,Bushwick Ave & Stagg St,40.709897,-73.94008
504,Stuy Town,Manhattan,10009,1 Ave & E 16 St,40.73221853,-73.98165557
4056,Washington Heights,Manhattan,10032,Broadway & W 165 St,40.839137,-73.941409
492,Garment District,Manhattan,10018,W 33 St & 7 Ave,40.75019995,-73.99093085
3440,Downtown Brooklyn,Brooklyn,11207,Fulton St & Adams St,40.69241829257847,-73.98949474096298
513,Midtown,Manhattan,10019,W 56 St & 10 Ave,40.768254,-73.988639
505,Herald Square,Manhattan,10019,6 Ave & W 33 St,40.74901271,-73.98848395
3141,Lenox Hill,Manhattan,10029,1 Ave & E 68 St,40.76500525,-73.95818491
319,Financial District,Manhattan,10038,Fulton St & Broadway,40.711066,-74.009447
3776,Bushwick,Brooklyn,11221,Central Ave & Starr Street,40.700003,-73.92834
3472,Chelsea,Manhattan,10001,W 15 St & 10 Ave,40.74275382865903,-74.00747358798981
3423,Park Slope,Brooklyn,11215,West Drive & Prospect Park West,40.6610633719006,-73.97945255041122
3870,,Brooklyn,11206,Melrose St & Broadway,40.697481,-73.935877
3898,Lenox Hill,Manhattan,10065,E 63 St & 3 Ave,40.763954,-73.9646
3057,,Brooklyn,11221,Kosciuszko St & Tompkins Ave,40.69128258,-73.9452416
387,Civic Center,Manhattan,10000,Centre St & Chambers St,40.71273266,-74.0046073
3841,Bushwick,Brooklyn,11221,Menahan St & Central Ave,40.69543,-73.9196
3329,Cobble Hill Historic District,Brooklyn,11231,Degraw St & Smith St,40.6829151,-73.99318208
530,Hell's Kitchen,Manhattan,10018,11 Ave & W 59 St,40.77149671054441,-73.99046033620834
3534,Harlem,Manhattan,10026,Frederick Douglass Blvd & W 117 St,40.805159,-73.954692
376,Financial District,Manhattan,10038,John St & William St,40.70862144,-74.00722156
3552,Morningside Heights,Manhattan,10025,W 113 St & Broadway,40.805973,-73.964928
3981,Harlem,Manhattan,10032,Harlem River Dr & W 155 St,40.830476,-73.939929
3781,Bushwick,Brooklyn,11237,Greene Av & Myrtle Av,40.698568,-73.918877
342,Lower East Side,Manhattan,10002,Columbia St & Rivington St,40.71739973,-73.98016555
151,Little Italy,Manhattan,10012,Cleveland Pl & Spring St,40.722103786686034,-73.99724900722504
3328,Manhattan Valley,Manhattan,10025,W 100 St & Manhattan Ave,40.795,-73.9645
346,West Village,Manhattan,10014,Bank St & Hudson St,40.73652889,-74.00618026
472,Midtown South,Manhattan,10016,E 32 St & Park Ave,40.7457121,-73.98194829
3157,Yorkville,Manhattan,10028,East End Ave & E 86 St,40.77518615,-73.94446054
3158,Lincoln Square,Manhattan,10023,W 63 St & Broadway,40.77163851,-73.98261428
3041,Bedford-Stuyvesant,Brooklyn,11213,Kingston Ave & Herkimer St,40.67890679,-73.94142771
3135,Upper East Side,Manhattan,10021,E 75 St & 3 Ave,40.77112927,-73.95772297
3318,Lenox Hill,Manhattan,10128,2 Ave & E 96 St,40.7839636,-73.9471673
3049,Clinton Hill,Brooklyn,11238,Cambridge Pl & Gates Ave,40.68488,-73.96304
4053,Washington Heights,Manhattan,10032,W 163 St & Edgecombe Ave,40.835798,-73.937496
3323,Manhattan Valley,Manhattan,10025,W 106 St & Central Park West,40.7981856,-73.9605909006
3521,Harlem,Manhattan,10037,Lenox Ave & W 111 St,40.7987859,-73.9523
3641,Flatiron District,Manhattan,10010,Broadway & W 25 St,40.74286877312112,-73.98918628692627
3142,Yorkville,Manhattan,10065,1 Ave & E 62 St,40.7612274,-73.96094022
4010,Sugar Hill,Manhattan,10040,W 145 St & Amsterdam Ave,40.825244,-73.947257
3453,Williamsburg,Brooklyn,11211,Devoe St & Lorimer St,40.71335226222875,-73.9491033554077
3255,Garment District,Manhattan,10018,8 Ave & W 31 St,40.7505853470215,-73.9946848154068
270,Fort Greene,Brooklyn,11238,Adelphi St & Myrtle Ave,40.69308257,-73.97178913
517,Murray Hill,Manhattan,10037,Pershing Square South,40.751581,-73.97791
326,East Village,Manhattan,10009,E 11 St & 1 Ave,40.72953837,-73.98426726
3610,Astoria,Queens,11106,Vernon Blvd & 30 Rd,40.770845,-73.934171
328,Tribeca,Manhattan,10005,Watts St & Greenwich St,40.72405549,-74.00965965
3564,,Queens,11106,21 St & 36 Ave,40.7601853,-73.9362726
3998,Harlem,Manhattan,10037,W 135 St & Lenox Terrace Pl,40.813619,-73.939336
3769,,Brooklyn,11206,White St & Johnson Ave,40.707174,-73.93581
3285,Upper West Side,Manhattan,10024,W 87 St & Amsterdam Ave,40.78839,-73.9747
532,Williamsburg,Brooklyn,11249,S 5 Pl & S 5 St,40.710451,-73.960876
468,Midtown,Manhattan,10107,Broadway & W 56 St,40.7652654,-73.98192338
364,Clinton Hill,Brooklyn,11221,Lafayette Ave & Classon Ave,40.68900443,-73.96023854
436,,Brooklyn,11233,Hancock St & Bedford Ave,40.68216564,-73.95399026
3117,Greenpoint Landing,Brooklyn,11222,Franklin St & Dupont St,40.73564,-73.95866
212,Chelsea,Manhattan,10011,W 16 St & The High Line,40.74334935,-74.00681753
3351,East Harlem,Manhattan,10029,E 102 St & 1 Ave,40.7869946,-73.94164802
4065,Washington Heights,Manhattan,10033,Wadsworth Ave & W 179 St,40.848467,-73.936064
368,West Village,Manhattan,10014,Carmine St & 6 Ave,40.73038599,-74.00214988
2021,Hell's Kitchen,Manhattan,10036,W 45 St & 8 Ave,40.75929124,-73.98859651
3082,Williamsburg,Brooklyn,11211,Hope St & Union Ave,40.71167351,-73.95141312
3821,Bushwick,Brooklyn,11206,Evergreen Ave & Noll St,40.70106,-73.93318
3928,Harlem,Manhattan,10027,Adam Clayton Powell Blvd & W 132 St,40.813539,-73.94521
3356,Lincoln Square,Manhattan,10023,Amsterdam Ave & W 66 St,40.7746671,-73.98470567
3656,Alphabet City,Manhattan,10009,E 2 St & Avenue A,40.72307749068673,-73.98583620786667
3583,Prospect Heights,Brooklyn,11238,Eastern Pkwy & Washington Ave,40.6716493,-73.9631145
519,Murray Hill,Manhattan,10037,Pershing Square North,40.751873,-73.977706
4004,Harlem,Manhattan,10030,Edgecombe Ave & W 141 St,40.820681,-73.945144
526,Midtown South,Manhattan,10016,E 33 St & 5 Ave,40.74765947,-73.98490707
4034,Hamilton Heights,Manhattan,10031,Hamilton Pl & W 138 St,40.821728,-73.952761
349,Lower East Side,Manhattan,10002,Rivington St & Ridge St,40.71850211,-73.98329859
432,East Village,Manhattan,10009,E 7 St & Avenue A,40.72621788,-73.98379855
487,Stuy Town,Manhattan,10009,E 20 St & FDR Drive,40.73314259,-73.97573881
3130,,Queens,11101,21 St & Queens Plaza North,40.75325964,-73.94335788
261,,Brooklyn,11201,Johnson St & Gold St,40.69474881,-73.98362464
3957,Bronx County,The Bronx,10454,E 144 St & Brook Ave,40.811675,-73.917037
3609,Astoria,Queens,11369,Vernon Blvd & 31 Ave,40.7692475,-73.9354504
415,Financial District,Manhattan,10038,Pearl St & Hanover Square,40.7047177,-74.00926027
3354,,Brooklyn,11215,3 St & Prospect Park West,40.668132,-73.97363831
174,Kips Bay,Manhattan,10010,E 25 St & 1 Ave,40.7381765,-73.97738662
3094,Greenpoint,Brooklyn,11211,Graham Ave & Withers St,40.7169811,-73.94485918
3233,Midtown East,Manhattan,10017,E 48 St & 5 Ave,40.75724567911726,-73.97805914282799
3387,East Harlem,Manhattan,10037,E 106 St & Madison Ave,40.7934337,-73.94945003
3420,Gowanus,Brooklyn,11217,Douglass St & 3 Ave,40.6802133,-73.98432695
285,East Village,Manhattan,10003,Broadway & E 14 St,40.73454567,-73.99074142
497,Union Square,Manhattan,10010,E 17 St & Broadway,40.73704984,-73.99009296
116,Chelsea,Manhattan,10011,W 17 St & 8 Ave,40.74177603,-74.00149746
3486,Boerum Hill,Brooklyn,11201,Schermerhorn St & Bond St,40.688417427540834,-73.98451656103134
265,Lower East Side,Manhattan,10012,Stanton St & Chrystie St,40.72229346,-73.99147535
3760,,Brooklyn,11237,Willoughby Ave & Wyckoff Ave,40.705614,-73.92153
307,Lower East Side,Manhattan,10002,Canal St & Rutgers St,40.71427487,-73.98990025
268,Little Italy,Manhattan,10013,Howard St & Centre St,40.71910537,-73.99973337
486,Midtown South,Manhattan,10019,Broadway & W 29 St,40.7462009,-73.98855723
467,Park Slope,Brooklyn,11213,Dean St & 4 Ave,40.68312489,-73.97895137
3890,Bushwick,Brooklyn,11221,Grove St & Broadway,40.69047,-73.923511
4027,Sugar Hill,Manhattan,10040,St. Nicholas Ave & W 155 St,40.830663,-73.941323
3997,Harlem,Manhattan,10037,5 Av & W 139 St,40.815484,-73.935856
3847,Bushwick,Brooklyn,11221,Cedar St & Evergreen Ave,40.69671,-73.92807
3296,Carnegie Hill,Manhattan,10128,E 93 St & 2 Ave,40.782454175279874,-73.9489196240902
4060,Washington Heights,Manhattan,10032,Amsterdam Ave & W 172 St,40.842173,-73.935111
335,Greenwich Village,Manhattan,10003,Washington Pl & Broadway,40.72903917,-73.99404649
4035,Sugar Hill,Manhattan,10031,Broadway & W 153 St,40.831327,-73.946665
3967,Hamilton Heights,Manhattan,10031,W 146 St & Broadway,40.826969,-73.949738
3648,,Brooklyn,11237,Flushing Ave & Vanderbilt Ave,40.69795031569544,-73.97077560424805
3708,Greenwich Village,Manhattan,10011,W 13 St & 5 Ave,40.735445,-73.99431
3134,Lenox Hill,Manhattan,10065,3 Ave & E 62 St,40.76312584,-73.96526895
4000,Harlem,Manhattan,10037,Lenox Ave & W 144 St,40.819783,-73.936521
312,Lower East Side,Manhattan,10002,Allen St & Stanton St,40.722055,-73.989111
402,Flatiron District,Manhattan,10010,Broadway & E 22 St,40.7403432,-73.98955109
355,Chinatown,Manhattan,10013,Bayard St & Baxter St,40.71602118,-73.99974372
2017,Tudor City,Manhattan,10017,E 43 St & 2 Ave,40.75022392,-73.97121414
3689,Manhattan Valley,Manhattan,10025,W 104 St & Amsterdam Ave,40.79904139288298,-73.96649479866028
3900,,Brooklyn,11222,Morgan Ave & Lombardy St,40.72226,-73.93889
3746,Hudson Square,Manhattan,10014,6 Ave & Broome St,40.724308321602166,-74.00473035871983
4011,Bronx County,The Bronx,10455,Westchester Ave & Jackson Ave,40.816124,-73.908116
3165,Upper West Side,Manhattan,10023,Central Park West & W 72 St,40.77579376683666,-73.9762057363987
244,Clinton Hill,Brooklyn,11205,Willoughby Ave & Hall St,40.69196035,-73.96536851
369,Greenwich Village,Manhattan,10011,Washington Pl & 6 Ave,40.73224119,-74.00026394
445,East Village,Manhattan,10009,E 10 St & Avenue A,40.72740794,-73.98142006
3571,,Brooklyn,11216,Bedford Ave & Bergen St,40.676368,-73.952918
531,Lower East Side,Manhattan,10002,Forsyth St & Broome St,40.71893904,-73.99266288
3170,Upper West Side,Manhattan,10024,W 84 St & Columbus Ave,40.78499979,-73.97283406
245,Fort Greene,Brooklyn,11237,Myrtle Ave & St Edwards St,40.69327018,-73.97703874
146,Tribeca,Manhattan,10014,Hudson St & Reade St,40.71625008,-74.0091059
3711,East Village,Manhattan,10009,E 13 St & Avenue A,40.72966729392978,-73.98067966103554
3050,Bedford-Stuyvesant,Brooklyn,11221,Putnam Ave & Throop Ave,40.6851532,-73.94111
3463,Union Square,Manhattan,10003,E 16 St & Irving Pl,40.735367055605394,-73.98797392845154
3964,Bronx County,The Bronx,10455,Brook Ave & E 148 St,40.814383,-73.915368
4058,Midtown East,Manhattan,10022,Madison Av & E 51 St,40.75863,-73.97513
3771,,Brooklyn,11206,McKibbin St & Bogart St,40.706237,-73.933871
3058,,Brooklyn,11221,Lewis Ave & Kosciuszko St,40.69237074,-73.93705428
3725,Lenox Hill,Manhattan,10035,2 Ave & E 72 St,40.7687620293096,-73.95840793848038
4096,Bronx County,The Bronx,10456,Grand Concourse & E 167 St,40.834263,-73.917641
3613,Long Island City,Queens,11109,Center Blvd & 48 Ave,40.745038,-73.957539
399,Clinton Hill,Brooklyn,11238,Lafayette Ave & St James Pl,40.68851534,-73.9647628
3325,Carnegie Hill,Manhattan,10128,E 95 St & 3 Ave,40.7849032,-73.950503
3500,East Harlem,Manhattan,10029,E 115 St & Madison Ave,40.7989445,-73.944846
3575,,Queens,11106,Crescent St & 34 Ave,40.76108,-73.930562
3775,,Brooklyn,11237,Suydam St & Knickerbocker Ave,40.702013,-73.923769
3724,Midtown,Manhattan,10019,7 Ave & Central Park South,40.7667405590595,-73.9790689945221
3518,Harlem,Manhattan,10027,Lenox Ave & W 126 St,40.808442,-73.9452087
3531,Harlem,Manhattan,10027,Frederick Douglass Blvd & W 129 St,40.8125511,-73.9492286
479,Hell's Kitchen,Manhattan,10003,9 Ave & W 45 St,40.76019252,-73.9912551
3496,Yorkville,Manhattan,10029,1 Ave & E 110 St,40.7923272,-73.9383
3856,,Brooklyn,11222,Kingsland Ave & Nassau Ave,40.72577,-73.94173
3286,Yorkville,Manhattan,10128,E 89 St & 3 Ave,40.7806284,-73.9521667
167,Murray Hill,Manhattan,10016,E 39 St & 3 Ave,40.7489006,-73.97604882
3302,Manhattan Valley,Manhattan,10025,Columbus Ave & W 103 St,40.7969347,-73.9643412291
3553,Harlem,Manhattan,10026,Frederick Douglass Blvd & W 112 St,40.801694,-73.957145
347,Hudson Square,Manhattan,10014,Greenwich St & W Houston St,40.728846,-74.008591
3815,Turtle Bay,Manhattan,10022,E 51 St & 2 Ave,40.755293,-73.967641
3056,,Brooklyn,11216,Kosciuszko St & Nostrand Ave,40.69072549,-73.95133465
3064,,Brooklyn,11237,Myrtle Ave & Lewis Ave,40.69681963,-73.93756926
3866,,Brooklyn,11207,Wilson Ave & Moffat St,40.68906,-73.90506
539,Greenpoint,Brooklyn,11249,Metropolitan Ave & Bedford Ave,40.71534825,-73.96024116
3580,Prospect Heights,Brooklyn,11238,St Johns Pl & Washington Ave,40.6737236,-73.9631611
3349,Park Slope,Brooklyn,11217,Grand Army Plaza & Plaza St West,40.6729679,-73.97087984
3693,Greenpoint,Brooklyn,11249,N 11 St & Kent Ave,40.72248188638219,-73.95921930670738
3410,Boerum Hill Historic District,Brooklyn,11217,Dean St & Hoyt St,40.6864442,-73.98759104
4047,Washington Heights,Manhattan,10032,Amsterdam Ave & W 156 St,40.832081,-73.942386
3429,Fort Greene,Brooklyn,11217,Hanson Pl & Ashland Pl,40.68506807308177,-73.97790759801863
3178,Upper West Side,Manhattan,10024,Riverside Dr & W 78 St,40.78414472,-73.98362492
3177,Upper West Side,Manhattan,10024,W 84 St & Broadway,40.7867947,-73.977112
3373,,Brooklyn,11215,3 St & 3 Ave,40.6750705,-73.98775226
282,,Brooklyn,11249,Kent Ave & S 11 St,40.707644944175705,-73.96841526031494
485,Midtown South,Manhattan,10018,W 37 St & 5 Ave,40.75038009,-73.98338988
3739,West Village,Manhattan,10014,Perry St & Greenwich Ave,40.735918,-74.000939
298,,Brooklyn,11227,3 Ave & Schermerhorn St,40.68683208,-73.9796772
3728,Brooklyn Heights,Brooklyn,11201,Pierrepont St & Monroe Pl,40.69535693320225,-73.99344027042389
412,Chinatown,Manhattan,10002,Forsyth St & Canal St,40.7158155,-73.99422366
410,Lower East Side,Manhattan,10002,Suffolk St & Stanton St,40.72066442,-73.98517977
3259,Chelsea,Manhattan,10001,9 Ave & W 28 St,40.74937024193277,-73.99923384189606
3618,Long Island City,Queens,11101,27 St & Hunter St,40.7485,-73.941275
284,West Village,Manhattan,10014,Greenwich Ave & 8 Ave,40.7390169121,-74.0026376103
4020,Harlem,Manhattan,10039,Bradhurst Ave & W 148 St,40.825125,-73.941616
3053,,Brooklyn,11216,Marcy Ave & Lafayette Ave,40.6900815,-73.947915
3749,Murray Hill,Manhattan,10016,Lexington Ave & E 36 St,40.7475739589548,-73.9788007736206
343,,Brooklyn,11205,Clinton Ave & Flushing Ave,40.69794,-73.96986848
3876,Ridgewood,Queens,11385,Forest Ave & Summerfield St,40.69922,-73.89795
320,Tribeca,Manhattan,10013,Leonard St & Church St,40.717571,-74.005549
3256,Hudson Square,Manhattan,10282,Pier 40 - Hudson River Park,40.7277140777778,-74.01129573583603
3599,,Brooklyn,11225,Franklin Ave & Empire Blvd,40.66314,-73.9605695
281,Midtown,Manhattan,10153,Grand Army Plaza & Central Park S,40.7643971,-73.97371465
3232,Downtown Brooklyn,Brooklyn,11231,Bond St & Fulton St,40.68962188790333,-73.98304268717766
361,Chinatown,Manhattan,10002,Allen St & Hester St,40.71605866,-73.99190759
4007,Hamilton Heights,Manhattan,10031,Riverside Dr & W 138 St,40.823168,-73.955857
3313,Park Slope,Brooklyn,11215,6 Ave & 12 St,40.6663181,-73.9854617
4043,Upper West Side,Manhattan,10024,W 78 St & Amsterdam Ave,40.782535857724106,-73.97908508777618
400,Lower East Side,Manhattan,10002,Pitt St & Stanton St,40.71926081,-73.98178024
394,East Village,Manhattan,10009,E 9 St & Avenue C,40.72521311,-73.97768752
3740,SoHo,Manhattan,10012,W Broadway & W Houston St,40.726378,-74.000472
3374,,Manhattan,10026,Central Park North & Adam Clayton Powell Blvd,40.799484,-73.955613
3608,Long Island City,Queens,11101,5 St & 51 Ave,40.7423737,-73.9566
3533,Harlem,Manhattan,10027,St. Nicholas Ave & W 126 St,40.8114323,-73.9518776
3148,Yorkville,Manhattan,10028,E 84 St & 1 Ave,40.77565541,-73.95068615
317,East Village,Manhattan,10009,E 6 St & Avenue B,40.72453734,-73.98185424
4045,Upper West Side,Manhattan,100,West End Ave & W 60 St,40.77237,-73.99005
247,West Village,Manhattan,10014,Perry St & Bleecker St,40.73535398,-74.00483091
238,West Village,Manhattan,10014,Bank St & Washington St,40.7361967,-74.00859207
3425,East Harlem,Manhattan,10029,2 Ave & E 104 St,40.7892105,-73.94370784
3502,East Harlem,Manhattan,10029,Lexington Ave & E 111 St,40.7954121,-73.9441232
383,West Village,Manhattan,10014,Greenwich Ave & Charles St,40.735238,-74.000271
380,West Village,Manhattan,10014,W 4 St & 7 Ave S,40.73401143,-74.00293877
469,Theater District,Manhattan,10107,Broadway & W 53 St,40.76344058,-73.98268129
2010,SoHo,Manhattan,10013,Grand St & Greene St,40.72170005235607,-74.00238141417502
3929,Bronx County,The Bronx,10454,Willis Ave & E 141 St,40.81093,-73.921606
3920,East Harlem,Manhattan,10037,E 132 St & Madison Ave,40.810224,-73.937195
3623,Morningside Heights,Manhattan,10027,W 120 St & Claremont Ave,40.8109494,-73.9634
3504,East Harlem,Manhattan,10035,E 123 St & Lexington Ave,40.8029263,-73.9379
3930,Bronx County,The Bronx,10454,E 142 St & 3 Ave,40.812735,-73.923697
3163,,Manhattan,10023,Central Park West & W 68 St,40.7734066,-73.97782542
377,Hudson Square,Manhattan,10005,6 Ave & Canal St,40.72243797,-74.00566443
3846,Bushwick,Brooklyn,11221,Central Ave & Himrod St,40.69676,-73.92302
331,Two Bridges,Manhattan,10002,Pike St & Monroe St,40.71173107,-73.99193043
3411,Boerum Hill Historic District,Brooklyn,11217,Bond St & Bergen St,40.6849668,-73.98620772
3129,Long Island City,Queens,11101,Queens Plaza North & Crescent St,40.75110165,-73.94073717
3799,Herald Square,Manhattan,10120,6 Ave & W 34 St,40.74964,-73.98805
83,Prospect Heights,Brooklyn,11208,Atlantic Ave & Fort Greene Pl,40.68382604,-73.97632328
3397,Carroll Gardens,Brooklyn,11231,Court St & Nelson St,40.6763947,-73.99869893
3862,Bushwick,Brooklyn,11237,Linden St & Knickerbocker Ave,40.69714,-73.91566
481,Williamsburg,Brooklyn,11211,S 3 St & Bedford Ave,40.71260486,-73.96264403
3357,Manhattan Valley,Manhattan,10025,W 106 St & Amsterdam Ave,40.8008363,-73.9664492472
3338,Lenox Hill,Manhattan,10028,2 Ave & E 99 St,40.7862586,-73.94552579
3072,,Brooklyn,11222,Leonard St & Boerum St,40.70583339,-73.94644578
3454,Greenpoint,Brooklyn,11206,Leonard St & Maujer St,40.7103685423523,-73.94705951213837
448,Hudson Yards,Manhattan,10018,W 37 St & 10 Ave,40.75660359,-73.9979009
3778,Bushwick,Brooklyn,11237,Irving Ave & DeKalb Ave,40.7027,-73.92095
495,Hell's Kitchen,Manhattan,10036,W 47 St & 10 Ave,40.76269882,-73.99301222
3977,Bronx County,The Bronx,10455,Prospect Ave & Longwood Ave,40.81899,-73.90202
3588,Astoria,Queens,11106,Vernon Blvd & 10 St,40.7671863,-73.9373554
3379,East Harlem,Manhattan,10029,E 103 St & Lexington Ave,40.7903051,-73.94755757
3069,,Brooklyn,11221,Lorimer St & Broadway,40.70411791,-73.94818595
3167,Upper West Side,Manhattan,10023,Amsterdam Ave & W 73 St,40.77966809007312,-73.98093044757842
509,Chelsea,Manhattan,10001,9 Ave & W 22 St,40.7454973,-74.00197139
3540,Morningside Heights,Manhattan,10027,Morningside Ave & W 123 St,40.81,-73.9551508
435,Chelsea,Manhattan,10011,W 21 St & 6 Ave,40.74173969,-73.99415556
397,Fort Greene,Brooklyn,11207,Fulton St & Clermont Ave,40.68415748,-73.96922273
401,Lower East Side,Manhattan,10002,Allen St & Rivington St,40.72019576,-73.98997825
308,Civic Center,Manhattan,10038,St James Pl & Oliver St,40.71307916,-73.99851193
3507,East Harlem,Manhattan,10037,Park Ave & E 124 St,40.8045555,-73.9396861
3782,DUMBO,Brooklyn,11201,Brooklyn Bridge Park - Pier 2,40.698458,-73.997178
3600,Steinway,Queens,11103,31 Ave & Steinway St,40.7611488,-73.9170071
3584,Eastern Parkway,Brooklyn,11213,Eastern Pkwy & Franklin Ave,40.6707767,-73.9576801
3400,East Harlem,Manhattan,10029,E 110 St & Madison Ave,40.7961535,-73.94782145
3658,Chelsea,Manhattan,10011,W 18 St & 9 Ave,40.7435337324616,-74.00367558002472
408,Two Bridges,Manhattan,10002,Market St & Cherry St,40.71076228,-73.99400398
3399,Park Slope,Brooklyn,11215,7 St & 3 Ave,40.67260298150126,-73.98983001708984
3358,Park Slope,Brooklyn,11215,Garfield Pl & 8 Ave,40.6711978,-73.97484126
545,Stuy Town,Manhattan,10010,E 23 St & 1 Ave,40.736502,-73.97809472
3430,Greenpoint,Brooklyn,11222,Richardson St & N Henry St,40.71907891179564,-73.94223690032959
4001,Harlem,Manhattan,10039,Lenox Ave & W 146 St,40.821111,-73.935971
3988,East Harlem,Manhattan,10035,E 128 St & 3 Ave,40.805631,-73.934077
3243,Midtown East,Manhattan,10022,E 58 St & 1 Ave (NE Corner),40.75892386377695,-73.96226227283478
3516,,Queens,11102,31 St & Astoria Blvd,40.7699176,-73.9184057
3878,Ridgewood,Queens,11385,Cypress Ave & George St,40.69812,-73.90271
3161,Upper West Side,Manhattan,10023,W 76 St & Columbus Ave,40.7801839724239,-73.97728532552719
332,Lower East Side,Manhattan,10002,Cherry St,40.71219906,-73.97948148
423,Hell's Kitchen,Manhattan,10019,W 54 St & 9 Ave,40.76584941,-73.98690506
3166,Upper West Side,Manhattan,10023,Riverside Dr & W 72 St,40.78057799010334,-73.98562431335449
3616,Steinway,Queens,11103,Steinway St & 28 Ave,40.7656251,-73.9136695
411,East Village,Manhattan,10009,E 6 St & Avenue D,40.72228087,-73.97668709
344,Bedford-Stuyvesant,Brooklyn,11221,Monroe St & Bedford Ave,40.6851443,-73.95380904
3409,Cobble Hill Historic District,Brooklyn,11201,Bergen St & Smith St,40.6867443,-73.99063168
3842,,Brooklyn,11221,Bushwick Ave & Dekalb Ave,40.69502,-73.92825
3906,Battery Park City,Manhattan,10281,West St & Liberty St,40.711444,-74.014847
437,Bedford-Stuyvesant,Brooklyn,11233,Macon St & Nostrand Ave,40.6809833854,-73.9500479759
3629,Harlem,Manhattan,10039,Adam Clayton Powell Blvd & W 126 St,40.80949534777948,-73.94776493310928
3122,Long Island City,Queens,11109,48 Ave & 5 St,40.74436328706688,-73.9558732509613
3959,Harlem,Manhattan,10030,Edgecombe Ave & W 145 St,40.823498,-73.94386
3918,East Village,Manhattan,10009,Avenue D & E 8 St,40.72387,-73.975767
4013,Sugar Hill,Manhattan,10031,Convent Ave & W 151 St,40.82831,-73.942924
466,Flatiron District,Manhattan,10001,W 25 St & 6 Ave,40.74395411,-73.99144871
3537,Prospect Heights,Brooklyn,11238,Carlton Ave & Dean St,40.6809741,-73.9710097
3734,Midtown East,Manhattan,10022,E 58 St &  1 Ave (NW Corner),40.759125,-73.962658
438,East Village,Manhattan,10003,St Marks Pl & 1 Ave,40.72779126,-73.98564945
534,Financial District,Manhattan,10004,Water - Whitehall Plaza,40.70255065,-74.0127234
3288,Yorkville,Manhattan,10128,E 88 St & 1 Ave,40.778301,-73.9488134
217,DUMBO,Brooklyn,11201,Old Fulton St,40.70277159,-73.99383605
3927,Harlem,Manhattan,10030,Lenox Ave & W 133 St,40.81296,-73.941878
3745,,Queens,11106,36 Ave & 31 St,40.75651272984955,-73.92957486212252
323,Downtown Brooklyn,Brooklyn,11201,Lawrence St & Willoughby St,40.69236178,-73.98631746
3307,Upper West Side,Manhattan,10025,West End Ave & W 94 St,40.7941654,-73.974124
3817,Williamsburg,Brooklyn,11211,Withers St & Kingsland Ave,40.71773,-73.94051
3414,Park Slope,Brooklyn,11213,Bergen St & Flatbush Ave,40.680944723477296,-73.97567331790923
454,Turtle Bay,Manhattan,10022,E 51 St & 1 Ave,40.75455731,-73.96592976
3582,Prospect Heights,Brooklyn,11238,Lincoln Pl & Classon Ave,40.6721683,-73.9609
4062,Washington Heights,Manhattan,10033,Amsterdam Ave & W 175 St,40.844044,-73.933651
453,Chelsea,Manhattan,10011,W 22 St & 8 Ave,40.74475148,-73.99915362
3544,Prospect Heights,Brooklyn,11238,Underhill Ave & Pacific St,40.6804836,-73.9646795
3707,Kips Bay,Manhattan,10037,Lexington Ave & E 26 St,40.741459,-73.983293
3366,Upper West Side,Manhattan,10025,West End Ave & W 107 St,40.8021174,-73.9681805305
3783,Financial District,Manhattan,10038,Cliff St & Fulton St,40.70838,-74.00495
3871,Broadway Junction,Brooklyn,11207,Bushwick Ave & Furman Ave,40.68281,-73.90623
3987,Bronx County,The Bronx,10455,E 149 St & Jackson Ave,40.813135,-73.909235
3766,,Brooklyn,11211,Sharon St & Olive St,40.715353,-73.93856
446,Chelsea,Manhattan,10011,W 24 St & 7 Ave,40.74487634,-73.99529885
3887,Ridgewood,Queens,11385,Flushing Ave & Woodward Ave,40.71246,-73.91873
360,Financial District,Manhattan,10045,William St & Pine St,40.70717936,-74.00887308
3712,Hudson Yards,Manhattan,10001,W 35 St & Dyer Ave,40.754691750226016,-73.99740189313889
3350,Manhattan Valley,Manhattan,10025,W 100 St & Broadway,40.7973721,-73.97041192
3945,Hamilton Heights,Manhattan,10031,Amsterdam Ave & W 136 St,40.819746,-73.951819
508,Hell's Kitchen,Manhattan,10036,W 46 St & 11 Ave,40.76341379,-73.99667444
4088,Bronx County,The Bronx,10452,Nelson Ave & W 172 St,40.843965,-73.920999
3882,Ridgewood,Queens,11385,Norman St & Wyckoff Ave,40.69517,-73.90311
515,Hell's Kitchen,Manhattan,10036,W 43 St & 10 Ave,40.76009437,-73.99461843
257,Tribeca,Manhattan,10013,Lispenard St & Broadway,40.71939226,-74.00247214
3541,Morningside Heights,Manhattan,10027,Amsterdam Ave & W 125 St,40.813358,-73.956461
474,NoMad,Manhattan,10035,5 Ave & E 29 St,40.7451677,-73.98683077
3067,,Brooklyn,11207,Broadway & Whipple St,40.7016657,-73.9437303
3978,Bronx County,The Bronx,10456,Cauldwell Ave & E 161 St,40.82188,-73.907521
3718,Alphabet City,Manhattan,10009,E 11 St & Avenue B,40.72746420692392,-73.97950418293476
3522,Steinway,Queens,11101,37 St & 24 Ave,40.7701477,-73.9120938
3812,Greenwich Village,Manhattan,10003,University Pl & E 14 St,40.734814,-73.992085
3735,Hudson Yards,Manhattan,10001,W 30 St & 10 Ave,40.752694,-74.002353
4002,Harlem,Manhattan,10030,W 144 St & Adam Clayton Powell Blvd,40.820877,-73.939249
480,Hell's Kitchen,Manhattan,10019,W 53 St & 10 Ave,40.76669671,-73.99061728
502,Lower East Side,Manhattan,10002,Henry St & Grand St,40.714211,-73.981095
3052,,Brooklyn,11221,Lewis Ave & Madison St,40.686312,-73.935775
3833,Bushwick,Brooklyn,11221,Madison St & Evergreen Ave,40.69122,-73.91693
3384,Boerum Hill,Brooklyn,11231,Smith St & 3 St,40.6787242,-73.99599099
4124,,Manhattan,10025,Central Park W & W 91 St,40.78866499127884,-73.96680057048798
3390,East Harlem,Manhattan,10029,E 109 St & 3 Ave,40.79329668,-73.9432083
396,,Brooklyn,11216,Lefferts Pl & Franklin Ave,40.680342423,-73.9557689392
254,Greenwich Village,Manhattan,10014,W 11 St & 6 Ave,40.73532427,-73.99800419
3598,,Queens,11103,Newton Rd & 44 St,40.7595701,-73.9142678
3526,Steinway,Queens,11105,31 St & 23 Ave,40.7747878,-73.9125551
3076,Williamsburg,Brooklyn,11206,Scholes St & Manhattan Ave,40.70870368,-73.9448625
2009,Two Bridges,Manhattan,10038,Catherine St & Monroe St,40.71117444,-73.99682619
3105,Greenpoint,Brooklyn,11222,N 15 St & Wythe Ave,40.724055,-73.955736
3840,Ridgewood,Brooklyn,11237,Putnam Ave & Wyckoff Ave,40.69811,-73.90904
440,Turtle Bay,Manhattan,10017,E 45 St & 3 Ave,40.75255434,-73.97282625
359,Midtown East,Manhattan,10022,E 47 St & Park Ave,40.75510267,-73.97498696
3984,Hamilton Heights,Manhattan,10031,W 140 St & Riverside Dr,40.824013,-73.954743
3378,Upper East Side,Manhattan,10021,E 76 St & Park Ave,40.773763,-73.96222088
3824,Broadway Junction,Brooklyn,11207,Van Sinderen Ave & Truxton St,40.6786,-73.90369
295,Chinatown,Manhattan,10002,Pike St & E Broadway,40.71406667,-73.99293911
3874,Ridgewood,Queens,11385,Menahan St & Seneca Ave,40.70461,-73.91054
3536,Morningside Heights,Manhattan,10027,W 116 St & Broadway,40.8082,-73.9641
3106,Greenpoint,Brooklyn,11211,Driggs Ave & N Henry St,40.72325,-73.94308
3513,Astoria,Queens,11106,21 St & Hoyt Ave S,40.774645,-73.923706
3510,Harlem,Manhattan,10027,Adam Clayton Powell Blvd & W 123 St,40.8078316,-73.949373
3973,Sugar Hill,Manhattan,10031,St Nicholas Ave & W 150 St,40.827212,-73.942722
4075,Upper West Side,Manhattan,10024,Central Park West & W 85 St,40.78476,-73.969862
3759,,Brooklyn,11237,Irving Ave & Jefferson St,40.70538,-73.92535
3532,,Queens,11105,Ditmars Blvd & 19 St,40.78145,-73.9183302
3336,East Harlem,Manhattan,10129,E 97 St & Madison Ave,40.787801,-73.953559
229,NoHo,Manhattan,10012,Great Jones St,40.72743423,-73.99379025
3953,Harlem,Manhattan,10039,W 147 St & Adam Clayton Powell Blvd,40.82281,-73.937413
3044,,Brooklyn,11216,Albany Ave & Fulton St,40.6800105,-73.938475
3570,,Queens,11101,35 Ave & 37 St,40.7557327,-73.9236611
3733,Stuy Town,Manhattan,10009,Avenue C & E 18 St,40.730563,-73.973984
3169,Upper West Side,Manhattan,10024,Riverside Dr & W 82 St,40.78720869,-73.98128127
3999,Harlem,Manhattan,10030,Adam Clayton Powell Blvd & W 138 St,40.81695971032464,-73.9422959089279
3785,Theater District,Manhattan,10019,W 42 St & 6 Ave,40.75492,-73.98455
540,Rose Hill,Manhattan,10037,Lexington Ave & E 29 St,40.74311555376486,-73.98215353488922
3085,Williamsburg,Brooklyn,11211,Roebling St & N 4 St,40.71469,-73.95739
3319,Park Slope,Brooklyn,11215,14 St & 5 Ave,40.666287,-73.98895053
3331,Upper West Side,Manhattan,10025,Riverside Dr & W 104 St,40.8013434,-73.9711457439
3604,Brooklyn Community District 17,Brooklyn,11225,Rogers Ave & Sterling St,40.6630619,-73.9538746
3236,Hell's Kitchen,Manhattan,10036,W 42 St & Dyer Ave,40.75898481399634,-73.99379968643188
4085,Bronx County,The Bronx,10456,Grand Concourse & E 171 St,40.839549,-73.913004
3539,Morningside Heights,Manhattan,,W 116 St & Amsterdam Ave,40.8067581,-73.9607082
3124,Long Island City,Queens,11101,46 Ave & 5 St,40.74731,-73.95451
3585,,Brooklyn,11225,Union St & Bedford Ave,40.6691783,-73.9554162
3490,East Harlem,Manhattan,10035,E 116 St & 2 Ave,40.796879,-73.937261
301,East Village,Manhattan,10009,E 2 St & Avenue B,40.72217444,-73.98368779
3803,,Brooklyn,11225,Bedford Ave & Montgomery St,40.665816,-73.956934
3171,Upper West Side,Manhattan,10024,Amsterdam Ave & W 82 St,40.78524672,-73.97667321
228,Turtle Bay,Manhattan,10017,E 48 St & 3 Ave,40.7546011026,-73.971878855
267,Garment District,Manhattan,10019,Broadway & W 36 St,40.75097711,-73.98765428
3798,Midtown South,Manhattan,10018,W 40 St & 5 Ave,40.752269,-73.982079
4023,Harlem,Manhattan,10030,Adam Clayton Powell Blvd & W 141 St,40.819241,-73.941057
4029,Bronx County,The Bronx,10451,Courtlandt Ave & E 149 St,40.816402,-73.919549
351,Financial District,Manhattan,10045,Front St & Maiden Ln,40.70530954,-74.00612572
3819,,Brooklyn,11222,Green St & McGuinness Blvd,40.73396,-73.95204
4015,Harlem,Manhattan,10039,W 155 St & Frederick Douglass Blvd,40.82923,-73.936996
4070,Hudson Heights,Manhattan,10033,W 180 St & Ft Washington Ave,40.849972,-73.938423
3592,Astoria,Queens,11106,Crescent St & Broadway,40.7633589,-73.9286471
3499,East Harlem,Manhattan,10035,2 Ave & E 122 St,40.8006721,-73.9349
3140,Yorkville,Manhattan,10075,1 Ave & E 78 St,40.77140426,-73.9535166
3602,,Queens,11369,31 Ave & 34 St,40.763154,-73.920827
3992,Washington Heights,Manhattan,10032,W 169 St & Fort Washington Ave,40.8428422,-73.9421253
4051,Washington Heights,Manhattan,10032,W 160 St & St. Nicholas Ave,40.834468,-73.939865
3919,Financial District,Manhattan,10005,Wall St & South St,40.70437,-74.00637
3867,Broadway Junction,Brooklyn,11233,Somers St & Broadway,40.67945,-73.90474
3538,Morningside Heights,Manhattan,10025,W 110 St & Amsterdam Ave,40.802692,-73.96295
4076,,The Bronx,10451,E 150 St & Gerard Ave,40.820089,-73.928947
3828,,Brooklyn,11207,Eldert St & Bushwick Ave,40.68652,-73.91321
3881,Manhattanville,Manhattan,10027,12 Ave & W 125 St,40.818299,-73.960405
3902,Ridgewood,Queens,11385,Fairview Ave & Linden St,40.70694,-73.90632
482,Chelsea,Manhattan,10011,W 15 St & 7 Ave,40.73935542,-73.99931783
3714,,Brooklyn,11249,Division Ave & Hooper St,40.70684203101325,-73.9544353965357
3968,Bronx County,The Bronx,10455,Prospect Ave & E 151 St,40.814232,-73.903927
3637,Prospect Heights,Brooklyn,11238,Fulton St & Waverly Ave,40.68323865460341,-73.96599590778351
3950,,The Bronx,10454,Brook Ave & E 141 St,40.809619,-73.917875
393,East Village,Manhattan,10009,E 5 St & Avenue C,40.72299208,-73.97995466
3074,,Brooklyn,11206,Montrose Ave & Bushwick Ave,40.70767788,-73.94016171
3542,Morningside Heights,Manhattan,10115,Amsterdam Ave & W 119 St,40.8086249,-73.9596214
470,Chelsea,Manhattan,10011,W 20 St & 8 Ave,40.74345335,-74.00004031
456,Midtown East,Manhattan,10055,E 53 St & Madison Ave,40.7597108,-73.97402311
528,Kips Bay,Manhattan,10016,2 Ave & E 31 St,40.74290902,-73.97706058
503,Gramercy,Manhattan,10003,E 20 St & Park Ave,40.73827428,-73.98751968
3077,Williamsburg,Brooklyn,11211,Stagg St & Union Ave,40.70877084,-73.95095259
3527,East Harlem,Manhattan,10035,5 Ave & E 126 St,40.80698,-73.941747
3554,,Queens,11101,Vernon Blvd & 41 Rd,40.7552433,-73.9485678
4116,Bronx County,The Bronx,10452,Gerard Ave & E 164 St,40.830262,-73.923391
3060,,Brooklyn,11221,Willoughby Ave & Tompkins Ave,40.69425403,-73.94626915
3144,Upper East Side,Manhattan,10028,E 81 St & Park Ave,40.77677702,-73.9590097
4104,Manhattanville,Manhattan,10027,Old Broadway & W 133 St,40.818212,-73.955277
321,DUMBO,Brooklyn,11201,Cadman Plaza E & Red Cross Pl,40.69991755,-73.98971773
3297,Park Slope,Brooklyn,11215,6 St & 7 Ave,40.6686627,-73.97988067
3612,Astoria,Queens,11102,30 Ave & 21 St,40.7703743,-73.9286078
390,Downtown Brooklyn,Brooklyn,11201,Duffield St & Willoughby St,40.69221589,-73.9842844
224,Financial District,Manhattan,10038,Spruce St & Nassau St,40.71146364,-74.00552427
3503,East Harlem,Manhattan,10037,Madison Ave & E 120 St,40.80295,-73.942954
3615,Long Island City,Queens,11101,44 Dr & 21 St,40.748,-73.9460927
3850,,Brooklyn,11237,Jefferson St & Cypress Ave,40.70907,-73.92157
249,Tribeca,Manhattan,10013,Harrison St & Hudson St,40.71870987,-74.0090009
3535,Harlem,Manhattan,10027,Mt Morris Park W & W 120 St,40.804038,-73.945925
493,Theater District,Manhattan,10036,W 45 St & 6 Ave,40.7568001,-73.98291153
3873,Ridgewood,Queens,11385,Madison St & Cypress Ave,40.70068,-73.90742
388,Chelsea,Manhattan,10001,W 26 St & 10 Ave,40.749717753,-74.002950346
3551,East Harlem,Manhattan,10029,3 Ave & E 112 St,40.795508,-73.941606
3048,Bedford-Stuyvesant,Brooklyn,11221,Putnam Ave & Nostrand Ave,40.68402,-73.94977
3996,East Harlem,Manhattan,10035,Lexington Ave & E 128 St,40.806414,-73.936085
3895,Ridgewood,Queens,11385,Cypress Ave & Palmetto St,40.70157340873792,-73.90876293182373
4110,East Village,Manhattan,10009,Avenue D & E 10 St,40.72506551015475,-73.97515833377838
391,Brooklyn Heights,Brooklyn,11201,Clark St & Henry St,40.69760127,-73.99344559
4061,Washington Heights,Manhattan,10032,Fort Washington Ave & W 173 St,40.84522,-73.940493
3848,,Brooklyn,11221,Suydam St & Broadway,40.69544,-73.93223
3951,Bronx County,The Bronx,10454,E 141 St & St Ann's Ave,40.808633,-73.916124
3530,Steinway,Queens,11105,Crescent St & Ditmars Blvd,40.7787185,-73.9145645
3083,,Brooklyn,11207,Bushwick Ave & Powers St,40.71247661,-73.94100005
3301,Upper West Side,Manhattan,10025,Columbus Ave & W 95 St,40.7919557,-73.968087
4109,Fort George,Manhattan,10033,Amsterdam Ave & W 183 St,40.84925,-73.93022
403,East Village,Manhattan,10009,E 2 St & 2 Ave,40.72502876,-73.99069656
3622,East Harlem,Manhattan,10035,E 128 St & Madison Ave,40.80756,-73.939182
3321,Cobble Hill Historic District,Brooklyn,11231,Clinton St & Union St,40.6831164,-73.99785267
3061,,Brooklyn,11206,Throop Ave & Myrtle Ave,40.69622937,-73.94371094
4012,Sugar Hill,Manhattan,10031,W 148 St & Amsterdam Ave,40.827075,-73.945909
350,Lower East Side,Manhattan,10002,Clinton St & Grand St,40.71559509,-73.9870295
3369,Yorkville,Manhattan,10028,E 82 St & East End Ave,40.7724607,-73.9468208
3603,Astoria,Queens,11102,31 Ave & 30 St,40.7647,-73.9240312
3146,Upper East Side,Manhattan,10028,E 81 St & 3 Ave,40.77573034,-73.9567526
3150,Yorkville,Manhattan,10028,E 85 St & York Ave,40.77536905,-73.94803392
128,SoHo,Manhattan,10012,MacDougal St & Prince St,40.72710258,-74.00297088
379,Chelsea,Manhattan,10001,W 31 St & 7 Ave,40.749156,-73.9916
546,Rose Hill,Manhattan,10016,E 30 St & Park Ave S,40.74444921,-73.98303529
3614,Astoria,Queens,11102,Crescent St & 30 Ave,40.768692,-73.9249574
3744,East Village,Manhattan,10009,1 Ave & E 5 St,40.725864,-73.986389
4079,Bronx County,The Bronx,10456,Grant Ave & E 164 St,40.828847,-73.91769
3304,Park Slope,Brooklyn,11215,6 Ave & 9 St,40.668127,-73.98377641
275,Clinton Hill,Brooklyn,11238,Washington Ave & Greene Ave,40.68650065,-73.96563307
3731,Midtown,Manhattan,10111,W 47 St & 6 Ave,40.758397,-73.98255
3063,,Brooklyn,11235,Nostrand Ave & Myrtle Ave,40.69527008,-73.95238108
3852,,Brooklyn,11237,Stewart Ave & Johnson Ave,40.70869,-73.92587
4099,Bronx County,The Bronx,10456,E 169 St & Webster Ave,40.834015,-73.908863
3763,,Brooklyn,11385,Wyckoff Av & Jefferson St,40.707165,-73.923711
3154,Upper East Side,Manhattan,10075,E 77 St & 3 Ave,40.77314236,-73.95856158
358,West Village,Manhattan,10014,Christopher St & Greenwich St,40.73291553,-74.00711384
150,East Village,Manhattan,10002,E 2 St & Avenue C,40.7208736,-73.98085795
250,Little Italy,Manhattan,10012,Lafayette St & Jersey St,40.72456089,-73.99565293
3671,Yorkville,Manhattan,10028,E 81 St & 2 Ave,40.77477944895728,-73.95427465438843
3359,Upper East Side,Manhattan,10021,E 68 St & Madison Ave,40.7691572,-73.96703464
3478,Greenwood Heights,Brooklyn,11232,2 Ave & 36 St,40.65708866668485,-74.00870203971863
3457,Midtown East,Manhattan,10022,E 58 St & Madison Ave,40.76302594280519,-73.97209525108337
3221,Sunnyside,Queens,11101,47 Ave & 31 St,40.743,-73.93561
3172,Upper West Side,Manhattan,10023,W 74 St & Columbus Ave,40.7785669,-73.97754961
3290,Yorkville,Manhattan,10128,E 89 St & York Ave,40.7779453,-73.946041
385,Midtown East,Manhattan,10022,E 55 St & 2 Ave,40.75797322,-73.96603308
3649,Manhattanville,Manhattan,10027,W 129 St & Convent Ave,40.814394437915816,-73.95324736833572
525,Hudson Yards,Manhattan,10001,W 34 St & 11 Ave,40.75594159,-74.0021163
3376,Lenox Hill,Manhattan,10065,E 65 St & 2 Ave,40.76471851944339,-73.96222069859505
3605,Astoria,Queens,11369,31 Ave & Crescent St,40.7658346,-73.9265474
4081,Bronx County,The Bronx,10452,Gerard Ave & E 165 St,40.83173,-73.922394
3523,,Queens,11102,24 Ave & 29 St,40.7729,-73.916142
3284,Yorkville,Manhattan,10128,E 88 St & Park Ave,40.781410700190015,-73.95595908164978
3391,East Harlem,Manhattan,10029,E 106 St & 1 Ave,40.7892529,-73.93956237
3529,Harlem,Manhattan,10027,Lenox Ave & W 130 St,40.8107922,-73.9430681
3686,West Village,Manhattan,10014,Gansevoort St & Hudson St,40.73944820130404,-74.00507032871246
3942,Manhattanville,Manhattan,10115,Broadway & W 133 St,40.8190344,-73.956156
500,Theater District,Manhattan,10107,Broadway & W 51 St,40.76228826,-73.98336183
536,Kips Bay,Manhattan,10002,1 Ave & E 30 St,40.74144387,-73.97536082
223,West Village,Manhattan,10011,W 13 St & 7 Ave,40.73781509,-73.99994661
3565,Astoria,Queens,11101,36 Ave & 10 St,40.7614376,-73.9411265
3607,Astoria,Queens,11106,31 Ave & 14 St,40.7682,-73.9322662
3572,Sunnyside Gardens,Queens,11101,34 Ave & 38 St,40.756913,-73.921631
3606,Long Island City,Queens,11101,49 Ave & 21 St,40.74252,-73.948852
3911,Boerum Hill,Brooklyn,11217,Wyckoff St & Nevins St,40.683426,-73.984275
3235,Midtown South,Manhattan,10017,E 41 St & Madison Ave,40.752165280621966,-73.97992193698882
3131,Lenox Hill,Manhattan,10021,E 68 St & 3 Ave,40.76712840349542,-73.96224617958069
3443,Theater District,Manhattan,,W 52 St & 6 Ave,40.76132983124814,-73.97982001304626
3926,East Harlem,Manhattan,10037,5 Ave & W 131 St,40.81014,-73.93973
3511,Harlem,Manhattan,10026,Adam Clayton Powell Blvd & W 115 St,40.802535,-73.9532423
315,Financial District,Manhattan,10045,South St & Gouverneur Ln,40.70355377,-74.00670227
3132,Upper East Side,Manhattan,10022,E 59 St & Madison Ave,40.76350532,-73.97109243
3509,Harlem,Manhattan,10037,Lenox Ave & W 115 St,40.8011939,-73.9500739
3568,,Queens,11106,34 St & 35 Ave,40.7569332,-73.9262231
3119,Long Island City,Queens,11109,Vernon Blvd & 50 Ave,40.74232744,-73.95411749
3231,Lenox Hill,Manhattan,10021,E 67 St & Park Ave,40.76780080148132,-73.96592080593109
434,Chelsea,Manhattan,10001,9 Ave & W 18 St,40.74317449,-74.00366443
3164,Upper West Side,Manhattan,10025,Columbus Ave & W 72 St,40.7770575,-73.97898475
3561,,Queens,11101,37 Ave & 35 St,40.7531106,-73.9279917
3863,Bushwick,Brooklyn,11221,Central Ave & Woodbine St,40.69296,-73.91605
3563,,Queens,11106,28 St & 36 Ave,40.757186,-73.932719
3921,Bronx County,The Bronx,10454,Willis Ave & Bruckner Blvd,40.805701,-73.925177
79,Tribeca,Manhattan,10005,Franklin St & W Broadway,40.71911552,-74.00666661
3566,,Queens,11106,Crescent St & 35 Ave,40.7596276,-73.9321455
3601,Crown Heights,Brooklyn,11225,Sterling St & Bedford Ave,40.6627059,-73.9569115
3310,Park Slope,Brooklyn,11215,14 St & 7 Ave,40.663779,-73.98396846
3403,Park Slope,Brooklyn,11215,4 Ave & 9 St,40.6705135,-73.98876585
3591,Astoria,Queens,11106,21 St & 31 Dr,40.7659,-73.930819
239,Downtown Brooklyn,Brooklyn,11201,Willoughby St & Fleet St,40.69196566,-73.9813018
3811,Astoria,Queens,11102,27 Ave & 3 St,40.77485,-73.9342
3576,Prospect Heights,Brooklyn,11238,Park Pl & Vanderbilt Ave,40.6767,-73.969024
3364,Park Slope,Brooklyn,11215,Carroll St & 5 Ave,40.6751622,-73.9814832
3854,,Brooklyn,11211,Morgan Ave & Maspeth Ave,40.716657,-73.93637
421,Fort Greene,Brooklyn,11238,Clermont Ave & Park Ave,40.69573398,-73.97129668
416,Fort Greene,Brooklyn,11238,Cumberland St & Lafayette Ave,40.68753406,-73.97265183
3555,,Queens,11101,28 St & 41 Ave,40.751047,-73.93797
3597,Steinway,Queens,11101,43 St & Broadway,40.7577284,-73.9166368
3664,Tribeca,Manhattan,10013,North Moore St & Greenwich St,40.72019521437465,-74.0103006362915
3055,Bedford-Stuyvesant,Brooklyn,11216,Greene Ave & Nostrand Ave,40.6883337,-73.950916
3579,,Brooklyn,11216,Sterling Pl & Bedford Ave,40.672695,-73.954131
406,Brooklyn Heights,Brooklyn,11201,Hicks St & Montague St,40.69512845,-73.99595065
316,Financial District,Manhattan,10005,Fulton St & William St,40.70955958,-74.00653609
336,Greenwich Village,Manhattan,10003,Sullivan St & Washington Sq,40.73047747,-73.99906065
3501,East Harlem,Manhattan,10035,E 118 St & Madison Ave,40.8014866,-73.9442507
3335,Park Slope,Brooklyn,11215,Union St & 4 Ave,40.6772744,-73.98282002
3368,Park Slope,Brooklyn,11215,5 Ave & 3 St,40.6728155,-73.98352355
127,West Village,Manhattan,10014,Barrow St & Hudson St,40.73172428,-74.00674436
3159,Upper West Side,Manhattan,10023,W 67 St & Broadway,40.77492513,-73.98266566
398,Columbia Street Waterfront District,Brooklyn,11231,Atlantic Ave & Furman St,40.69165183,-73.9999786
3419,Park Slope,Brooklyn,11217,Douglass St & 4 Ave,40.6792788,-73.98154004
3289,Upper West Side,Manhattan,10024,W 90 St & Amsterdam Ave,40.79017948095081,-73.97288918495178
3116,,Brooklyn,11222,Huron St & Franklin St,40.73266,-73.95826
3260,Greenwich Village,Manhattan,10003,Mercer St & Bleecker St,40.72706363348306,-73.99662137031554
3339,Park Slope,Brooklyn,11217,Berkeley Pl & 6 Ave,40.6765304,-73.97846879
464,Midtown East,Manhattan,10022,E 56 St & 3 Ave,40.75934501,-73.96759673
304,Financial District,Manhattan,10275,Broadway & Battery Pl,40.70463334,-74.01361706
3298,Cobble Hill Historic District,Brooklyn,11201,Warren St & Court St,40.686371,-73.99383324
3668,Greenpoint,Brooklyn,11222,Leonard St & Nassau Ave,40.7239567849954,-73.94984364509583
3786,Chinatown,Manhattan,10002,Division St & Bowery,40.714193,-73.996732
276,Tribeca,Manhattan,10007,Duane St & Greenwich St,40.71748752,-74.0104554
3303,Cobble Hill,Brooklyn,11231,Butler St & Court St,40.6849894,-73.99440329
3287,Upper West Side,Manhattan,10024,W 87 St & West End Ave,40.789622,-73.97757
3690,Tribeca,Manhattan,10282,Park Pl & Church St,40.71334184275907,-74.00935515761375
3424,East Harlem,Manhattan,10029,E 106 St & Lexington Ave,40.791976,-73.945993
460,,Brooklyn,11211,S 4 St & Wythe Ave,40.71285887,-73.96590294
3306,Park Slope,Brooklyn,11215,10 St & 7 Ave,40.6662078,-73.98199886
3809,Midtown,Manhattan,,W 55 St & 6 Ave,40.763189,-73.978434
274,Fort Greene,Brooklyn,11221,Lafayette Ave & Fort Greene Pl,40.68691865,-73.976682
3715,Greenpoint,Brooklyn,11211,Driggs Ave & N 9 St,40.71816969454208,-73.95520135760307
3075,Williamsburg,Brooklyn,11249,Division Ave & Marcy Ave,40.70708701,-73.95796783
3412,Boerum Hill,Brooklyn,11217,Pacific St & Nevins St,40.6853761,-73.98302136
3418,Park Slope,Brooklyn,11238,Plaza St West & Flatbush Ave,40.6750207,-73.97111473
3790,Brooklyn Heights,Brooklyn,11201,Henry St & Middagh St,40.7003,-73.991581
3461,Tribeca,Manhattan,10007,Murray St & Greenwich St,40.71485150526252,-74.01122331619263
3282,,Manhattan,10128,5 Ave & E 88 St,40.78307,-73.95939
354,Clinton Hill,Brooklyn,11205,Emerson Pl & Myrtle Ave,40.69363137,-73.96223558
366,Clinton Hill,Brooklyn,11205,Clinton Ave & Myrtle Ave,40.693261,-73.968896
386,Civic Center,Manhattan,10000,Centre St & Worth St,40.71494807,-74.00234482
3578,Crown Heights,Brooklyn,11216,Park Pl & Franklin Ave,40.6741806,-73.9564947
3115,,Brooklyn,11222,India St & Manhattan Ave,40.73232194,-73.9550858
3673,,Brooklyn,11238,Dean St & Franklin Ave,40.67759206937376,-73.955637216568
3405,Park Slope,Brooklyn,11215,5 St & 6 Ave,40.6704836,-73.98208968
3581,Prospect Heights,Brooklyn,11238,Underhill Ave & Lincoln Pl,40.6740123,-73.9671457
3402,Brooklyn Heights,Brooklyn,11201,Court St & State St,40.6902375,-73.99203074
157,Brooklyn Heights,Brooklyn,11231,Henry St & Atlantic Ave,40.69089272,-73.99612349
3859,Greenpoint,Brooklyn,11222,Lorimer St & Calyer St,40.72795,-73.95414
3137,,Manhattan,10075,5 Ave & E 73 St,40.77282817,-73.96685276
4122,,Manhattan,10025,Central Park W & W 97 St,40.79249519495111,-73.96417066463071
4009,Hamilton Heights,Manhattan,10031,Riverside Dr & W 145 St,40.827305,-73.951989
3071,,Brooklyn,11206,Boerum St & Broadway,40.70538077,-73.94976519
3112,Greenpoint,Brooklyn,11222,Milton St & Franklin St,40.72906,-73.95779
3054,Bedford-Stuyvesant,Brooklyn,11221,Greene Ave & Throop Ave,40.6894932,-73.942061
82,Two Bridges,Manhattan,10038,St James Pl & Pearl St,40.71117416,-74.00016545
2022,Upper East Side,Manhattan,10155,E 60 St & York Ave,40.759107,-73.959223
3078,Williamsburg,Brooklyn,11207,Broadway & Roebling St,40.70924826276157,-73.96063148975372
4014,Hamilton Heights,Manhattan,10031,Riverside Dr & W 148 St,40.829114,-73.950426
3525,Steinway,Queens,11105,23 Ave & 27 St,40.776165,-73.9153175
3493,East Harlem,Manhattan,10035,E 118 St & 3 Ave,40.799139,-73.9389152
3469,,Brooklyn,11222,India St & West St,40.73181401720966,-73.95995020866394
278,DUMBO,Brooklyn,11201,Concord St & Bridge St,40.69766564,-73.98476437
3292,,Manhattan,10129,5 Ave & E 93 St,40.7857851,-73.957481
330,Civic Center,Manhattan,10013,Reade St & Broadway,40.71450451,-74.00562789
3804,DUMBO,Brooklyn,11201,Front St & Jay St,40.702461,-73.986842
264,Financial District,Manhattan,10038,Maiden Ln & Pearl St,40.70706456,-74.00731853
3755,Fort Greene,Brooklyn,11205,DeKalb Ave & Franklin Ave,40.69064807082943,-73.95746178925037
3043,,Brooklyn,11206,Lewis Ave & Decatur St,40.6814598,-73.934903
3916,Financial District,Manhattan,10038,Pearl St & Peck Slip,40.708485,-74.002751
3342,,Brooklyn,11231,Pioneer St & Richards St,40.6777748,-74.0094613
3308,Cobble Hill Historic District,Brooklyn,11231,Kane St & Clinton St,40.6861758,-73.99645295
3136,Upper East Side,Manhattan,10035,5 Ave & E 63 St,40.766368,-73.971518
3407,Gowanus,Brooklyn,11215,Union St & Nevins St,40.67909799721684,-73.98765474557877
3108,Greenpoint,Brooklyn,11222,Nassau Ave & Russell St,40.72557,-73.94434
3317,Park Slope,Brooklyn,11215,10 St & 5 Ave,40.6686273,-73.98700053
3113,,Brooklyn,11222,Greenpoint Ave & Manhattan Ave,40.73026,-73.95394
3574,Prospect Heights,Brooklyn,11238,Prospect Pl & Underhill Ave,40.6769694,-73.96579
3849,,Brooklyn,11237,Suydam St & St. Nicholas Ave,40.70636,-73.91945
3145,Yorkville,Manhattan,10028,E 84 St & Park Ave,40.77862688,-73.95772073
3332,Gowanus,Brooklyn,11217,Degraw St & Hoyt St,40.68199044270703,-73.99079024791718
367,Midtown East,Manhattan,10152,E 53 St & Lexington Ave,40.75828065,-73.97069431
3293,Upper West Side,Manhattan,10023,W 92 St & Broadway,40.7921,-73.9739
442,Chelsea,Manhattan,10001,W 27 St & 7 Ave,40.746647,-73.993915
3543,Morningside Heights,Manhattan,10027,Morningside Dr & Amsterdam Ave,40.81028506306003,-73.95736455917358
3879,Bushwick,Brooklyn,11221,Broadway & Madison St,40.68822,-73.91966
3348,Red Hook,Brooklyn,11231,Coffey St & Conover St,40.677236,-74.015665
3517,Steinway,Queens,11102,31 St & Hoyt Ave N,40.7711528,-73.9170074
3365,Park Slope,Brooklyn,11215,3 St & 7 Ave,40.6703837,-73.97839676
3995,East Harlem,Manhattan,10037,5 Ave & E 135 St,40.812191,-73.937838
310,Boerum Hill,Brooklyn,11208,State St & Smith St,40.68926942,-73.98912867
3877,Ridgewood,Queens,11385,Madison St & Forest Ave,40.70555,-73.90245
3092,Williamsburg,Brooklyn,11249,Berry St & N 8 St,40.7190095,-73.95852515
3515,,Queens,11105,24 Ave & 26 St,40.774591,-73.918544
3630,Harlem,Manhattan,10026,Frederick Douglass Blvd & W 115 St,40.8038654,-73.9559308
3393,Red Hook,Brooklyn,11231,Richards St & Delavan St,40.6794327,-74.00785041
3367,Manhattan Community Board 11,Manhattan,10029,5 Ave & E 103 St,40.7922553,-73.95249933
3311,Columbia Street Waterfront District,Brooklyn,11231,Columbia St & Kane St,40.68763155,-74.0016256
3421,Gowanus,Brooklyn,11217,Hoyt St & Warren St,40.6843549,-73.98901629
3855,,Brooklyn,11211,Frost St & Debevoise Ave,40.71882,-73.93948
3456,Greenpoint,Brooklyn,11211,Jackson St & Leonard St,40.71638031973561,-73.94821286201477
4036,Manhattan Community Board 8,Manhattan,10044,Motorgate,40.7639089,-73.9477213
3837,,Brooklyn,11221,Broadway & Kosciuszko St,40.69329,-73.92852
3126,Long Island City,Queens,11101,44 Dr & Jackson Ave,40.74718234,-73.9432635
4028,Harlem,Manhattan,10039,Frederick Douglass Blvd & Harlem River Dr,40.830702,-73.936371
3528,Steinway,Queens,11105,Steinway St & 23 Ave,40.7713937,-73.9077436
3377,Gowanus,Brooklyn,11231,Carroll St & Bond St,40.6786115,-73.99037292
3386,Carroll Gardens,Brooklyn,11231,1 Pl & Clinton St,40.6809591,-73.99905709
3139,Upper East Side,Manhattan,10021,E 72 St & Park Ave,40.77118287540658,-73.96409422159195
3344,Red Hook,Brooklyn,11231,Pioneer St & Van Brunt St,40.679043,-74.011169
516,Turtle Bay,Manhattan,10017,E 47 St & 1 Ave,40.75206862,-73.96784384
3569,,Brooklyn,11238,Franklin Ave & St Marks Ave,40.6758324,-73.9561677
291,Lower East Side,Manhattan,10002,Madison St & Montgomery St,40.713126,-73.984844
3491,East Harlem,Manhattan,10035,E 118 St & 1 Ave,40.79747,-73.93504
3595,,Queens,11106,35 St & Broadway,40.760339,-73.9222427
3415,Park Slope,Brooklyn,11217,Prospect Pl & 6 Ave,40.6793307,-73.97519523
3396,Cobble Hill Historic District,Brooklyn,11231,Clinton St & 4 Place,40.6783563,-74.00014502
3923,Bronx County,The Bronx,10454,Lincoln Ave & E 134 St,40.808484,-73.928803
3109,Greenpoint,Brooklyn,11222,Banker St & Meserole Ave,40.72606,-73.95621
3059,,Brooklyn,11206,Pulaski St & Marcus Garvey Blvd,40.6933982,-73.939877
420,Fort Greene,Brooklyn,11238,Clermont Ave & Lafayette Ave,40.68764484,-73.96968902
3343,Upper West Side,Manhattan,10025,W 107 St & Columbus Ave,40.7997568,-73.9621128676
3955,Bronx County,The Bronx,10454,St Mary's St & Jackson Ave,40.808891,-73.91081
3835,Bushwick,Brooklyn,11221,Knickerbocker Ave & Hancock St,40.69385,-73.90974
143,Brooklyn Heights,Brooklyn,11231,Clinton St & Joralemon St,40.69239502,-73.99337909
3869,Bushwick,Brooklyn,11221,Van Buren St & Broadway,40.692,-73.92617
3370,Upper East Side,Manhattan,10075,E 78 St & 2 Ave,40.7727966,-73.95577801
3770,,Brooklyn,11206,Central Ave & Flushing Ave,40.702831,-73.9333
3888,Ridgewood,Queens,11385,Woodward Ave & Harman St,40.70793,-73.91092
3417,Park Slope,Brooklyn,11217,Baltic St & 5 Ave,40.6795766,-73.97854971
3590,,Brooklyn,11225,Carroll St & Franklin Ave,40.6679411,-73.9588
4040,NoMad,Manhattan,10010,Madison Ave & E 26 St,40.742684734875695,-73.98671329021454
313,Clinton Hill,Brooklyn,11238,Washington Ave & Park Ave,40.69610226,-73.96751037
405,Meatpacking District,Manhattan,10001,Washington St & Gansevoort St,40.739323,-74.008119
3520,Harlem,Manhattan,10026,Adam Clayton Powell Blvd & W 118 St,40.804372,-73.951475
3589,Astoria,Queens,11373,Broadway & 12 St,40.7668,-73.9347774
373,Clinton Hill,Brooklyn,11205,Willoughby Ave & Walworth St,40.69331716,-73.95381995
4018,Manhattanville,Manhattan,10027,Broadway & W 131 St,40.817555,-73.957163
3892,,Queens,11101,38 Ave & 29 St,40.75473,-73.93367
241,Fort Greene,Brooklyn,11221,DeKalb Ave & S Portland Ave,40.68981035,-73.97493121
3676,Red Hook,Brooklyn,11232,Van Brunt St & Van Dyke St,40.6758329439129,-74.01472628116608
3808,Long Island City,Queens,11101,24 St & 41 Ave,40.752474,-73.939991
3404,Park Slope,Brooklyn,11215,7 St & 5 Ave,40.6704922,-73.98541675
3726,,Queens,11109,Center Blvd & 51 Ave,40.74336608027021,-73.95960688591003
418,DUMBO,Brooklyn,11201,Front St & Gold St,40.70224,-73.982578
3960,Hamilton Heights,Manhattan,10031,Hamilton Pl & W 140 St,40.822756,-73.951346
353,Fort Greene,Brooklyn,11217,S Portland Ave & Hanson Pl,40.68539567,-73.97431458
3070,,Brooklyn,11206,McKibbin St & Manhattan Ave,40.70510918,-73.94407279
3110,Greenpoint,Brooklyn,11222,Meserole Ave & Manhattan Ave,40.72708584,-73.95299117
3858,,Brooklyn,11222,Kent St & McGuinness Blvd,40.73124,-73.95161
3827,,Brooklyn,11233,Halsey St & Broadway,40.68565,-73.91564
3383,Manhattan Valley,Manhattan,10025,Cathedral Pkwy & Broadway,40.804213,-73.96699104
3880,Ridgewood,Queens,11385,Willoughby Ave & Onderdonk Ave,40.7098,-73.91727
3549,Prospect Heights,Brooklyn,11238,Grand Ave & Bergen St,40.678045,-73.962408
3066,,Brooklyn,11216,Tompkins Ave & Hopkins St,40.69957608,-73.94708417
3936,Manhattanville,Manhattan,10027,W 133 St & 12 Ave,40.820003,-73.959089
3381,Carroll Gardens,Brooklyn,11231,3 St & Hoyt St,40.6777287,-73.99364123
3125,Long Island City,Queens,11101,45 Rd & 11 St,40.74708586,-73.94977234
3661,,Brooklyn,11225,Montgomery St & Franklin Ave,40.666439306870814,-73.9605563879013
427,Financial District,Manhattan,10004,Bus Slip & State St,40.701907,-74.013942
3294,Carnegie Hill,Manhattan,10128,E 91 St & Park Ave,40.7835016,-73.955327
3514,Astoria,Queens,11105,Astoria Park S & Shore Blvd,40.7767,-73.927631
3299,East Harlem,Manhattan,10129,E 98 St & Park Ave,40.78813,-73.95206
3716,,Queens,11101,40 Ave & Crescent St,40.7535992020056,-73.93795609474182
4063,Washington Heights,Manhattan,10033,Wadsworth Ave & W 175 St,40.846052,-73.937648
3831,Bushwick,Brooklyn,11221,Broadway & Hancock St,40.68663,-73.9168
3966,Bronx County,The Bronx,10455,Wales Ave & E 147 St,40.811314,-73.907729
3891,Bushwick,Brooklyn,11237,Irving Ave & Palmetto St,40.698,-73.9127
3362,Upper East Side,Manhattan,10028,Madison Ave & E 82 St,40.7781314,-73.96069399
3832,Bushwick,Brooklyn,11221,Central Ave & Weirfield St,40.69055,-73.91181
3095,Williamsburg,Brooklyn,11211,Graham Ave & Herbert St,40.71929301,-73.94500379
3046,,Brooklyn,11216,Marcus Garvey Blvd & Macon St,40.682601,-73.938037
3864,Bushwick,Brooklyn,11207,Central Ave & Covert St,40.68929,-73.90951
3375,Lenox Hill,Manhattan,10035,3 Ave & E 72 St,40.7699426,-73.96060712
3986,Bronx County,The Bronx,10455,E 149 St & Morris Ave,40.81734,-73.922962
3857,Greenpoint,Brooklyn,11222,Engert Ave & McGuinness Blvd,40.72158,-73.94546
3909,Fresh Pond Junction,Queens,11385,Madison St & Woodward Ave,40.70408,-73.90408
4037,Manhattan Community Board 8,Manhattan,10044,Roosevelt Island Tramway,40.757284,-73.9536
3088,Williamsburg,Brooklyn,11211,Union Ave & Jackson St,40.7160751,-73.952029
289,Bedford-Stuyvesant,Brooklyn,11221,Monroe St & Classon Ave,40.6845683,-73.95881081
3326,,Brooklyn,11231,Clinton St & Centre St,40.67434,-74.00194698
3674,DUMBO,Brooklyn,11201,Jay St & York St,40.70140317257725,-73.98672670125961
3773,,Brooklyn,11237,Knickerbocker Ave & Thames St,40.70539,-73.92976
3573,Sunnyside Gardens,Queens,11106,35 St & 34 Ave,40.7580583,-73.9242751
4068,Hudson Heights,Manhattan,10033,Fort Washington Ave & W 183 St,40.852252,-73.937854
3392,Columbia Street Waterfront District,Brooklyn,11231,Commerce St & Van Brunt St,40.6812117,-74.00860912
362,Garment District,Manhattan,10019,Broadway & W 37 St,40.75172632,-73.98753523
4006,Bronx County,The Bronx,10455,E 147 St & Bergen Ave,40.814673,-73.91839
3814,Midtown East,Manhattan,10022,E 56 St & Madison Ave,40.761573,-73.972628
3330,Red Hook,Brooklyn,11231,Henry St & Bay St,40.6725058,-74.00494695
3768,,Brooklyn,11211,Waterbury St & Stagg St,40.71019,-73.93734
3822,,Brooklyn,11206,Bushwick Ave & Forrest St,40.70076,-73.93641
4016,Harlem,Manhattan,10039,Adam Clayton Powell Blvd & W 130 St,40.812346,-73.946168
3586,,Queens,11106,34 Ave & 13 St,40.7638753,-73.9364848
3587,,Brooklyn,11225,Carroll St & Washington Ave,40.6686744,-73.9618148
3924,Bronx County,The Bronx,10454,Lincoln Ave & E 138 St,40.810893,-73.927311
3910,Bushwick,Brooklyn,11237,Greene Ave & Grandview Ave,40.709697,-73.907856
3524,Astoria,Queens,11102,19 St & 24 Ave,40.7774552,-73.9225403
3620,Long Island City,Queens,11101,11 St & 43 Ave,40.7519071,-73.9479119
3152,Lenox Hill,Manhattan,10021,3 Ave & E 71 St,40.76873687,-73.96119945
3361,Park Slope,Brooklyn,11215,Carroll St & 6 Ave,40.6740886,-73.9787282
4054,Washington Heights,Manhattan,10032,W 163 St & Riverside Dr,40.839278,-73.945446
3559,,Queens,11101,21 St & 38 Ave,40.7576314,-73.9391224
3249,Bedford-Stuyvesant,Brooklyn,11216,Verona Pl & Fulton St,40.6803560840434,-73.9476791024208
3619,Astoria,Queens,11106,Newtown Ave & 23 St,40.7713615,-73.9246145
522,Midtown East,Manhattan,10022,E 51 St & Lexington Ave,40.75714758,-73.97207836
3347,,Brooklyn,11231,Van Brunt St & Wolcott St,40.6773429,-74.01275056
4041,Harlem,Manhattan,10039,Adam Clayton Powell Blvd & W 151 St,40.825289,-73.936232
3940,Bronx County,The Bronx,10454,E 134 St & Walnut Ave,40.800425,-73.911034
3577,,Queens,11101,34 Ave & 21 St,40.7628138,-73.9342862
3723,Downtown Brooklyn,Brooklyn,11201,Cadman Plaza E & Johnson St,40.69531727766904,-73.99015724658966
3818,Greenpoint,Brooklyn,11222,Calyer St & Jewel St,40.72984,-73.94839
3352,Red Hook,Brooklyn,11232,Sigourney St & Columbia St,40.67267243410948,-74.0087952464819
144,,Brooklyn,11251,Nassau St & Navy St,40.69839895,-73.98068914
309,Tribeca,Manhattan,10282,Murray St & West St,40.7149787,-74.013012
3047,,Brooklyn,11233,Halsey St & Tompkins Ave,40.6823687,-73.944118
3107,Greenpoint,Brooklyn,11249,Bedford Ave & Nassau Ave,40.72311651,-73.95212324
3506,East Harlem,Manhattan,10037,Lexington Ave & E 120 St,40.8013066,-73.9398167
3065,,Brooklyn,11211,Union Ave & Wallabout St,40.70029511,-73.95032283
3839,Bushwick,Brooklyn,11237,Putnam Ave & Knickerbocker Ave,40.69545,-73.91164
3758,,Brooklyn,11237,George St & Wilson Ave,40.702997,-73.92997
3939,Bronx County,The Bronx,10454,Willow Ave & E 133 St,40.800933,-73.913863
3774,,Brooklyn,11237,Knickerbocker Ave & George St,40.704425,-73.92836
3789,Prospect Heights,Brooklyn,11207,Fulton St & Irving Pl,40.68186,-73.959432
3830,Bushwick,Brooklyn,11207,Halsey St & Evergreen Ave,40.68858,-73.91227
3062,Clinton Hill,Brooklyn,11237,Myrtle Ave & Marcy Ave,40.69539817,-73.94954908
3315,Cobble Hill Historic District,Brooklyn,11231,Henry St & Degraw St,40.6847514,-73.99917254
3764,,Brooklyn,11206,Bushwick Ave & McKibbin St,40.705517,-73.93936
262,Fort Greene,Brooklyn,11205,Washington Park,40.6917823,-73.9737299
3933,Bronx County,The Bronx,10451,Gerard Ave & E 146 St,40.817755,-73.92965
3654,,Queens,11101,31 St & Northern Blvd,40.75186951421875,-73.93349289894103
3324,,Brooklyn,11215,3 Ave & 14 St,40.6685455,-73.99333264
4090,Bronx County,The Bronx,10451,Grand Concourse & E 156 St,40.823429,-73.924689
3935,Manhattanville,Manhattan,10027,Amsterdam Ave & W 131 St,40.816355,-73.954295
3182,Nolan Park,Manhattan,11232,Yankee Ferry Terminal,40.686931,-74.016966
3897,Ridgewood,Queens,11385,Onderdonk Ave & Dekalb Ave,40.70863,-73.91497
3838,Bushwick,Brooklyn,11221,Bushwick Ave & Harman St,40.69356,-73.92524
4031,Bronx County,The Bronx,10456,Cauldwell Ave & E 158 St,40.81989,-73.908351
3795,Park Slope,Brooklyn,11215,10 St & 2 Ave,40.671907,-73.993612
3327,East Harlem,Manhattan,10029,3 Ave & E 100 St,40.7877214,-73.94728331
3611,Long Island City,Queens,11101,Vernon Blvd & 47 Rd,40.7449067,-73.9534573
4019,Bronx County,The Bronx,10454,St. Ann's Av & Bruckner Blvd,40.803399,-73.919763
4106,Bronx County,The Bronx,10452,Ogden Ave & W 164 St,40.832812,-73.929372
3123,Sunnyside,Queens,11101,31 St & Thomson Ave,40.74469738,-73.93540375
216,Brooklyn Heights,Brooklyn,11201,Columbia Heights & Cranberry St,40.70037867,-73.99548059
3762,,Brooklyn,11215,3 Ave & Carroll St,40.677027,-73.9865
3780,Bushwick,Brooklyn,11237,Wyckoff Av & Stanhope St,40.703545,-73.917775
3884,Ridgewood,Queens,11385,Centre St & Seneca Ave,40.69969,-73.9022
3545,Morningside Heights,Manhattan,10115,Broadway & W 122 St,40.8120562,-73.9612547
3767,,Brooklyn,11211,Powers St & Olive St,40.71323,-73.93894
4055,Washington Heights,Manhattan,10032,W 165 St & Fort Washington Ave,40.84004,-73.942939
3860,Bushwick,Brooklyn,11237,Wilson Ave & Troutman St,40.70166,-73.92754
4038,Manhattan Community Board 8,Manhattan,11109,Southpoint Park,40.75370225419114,-73.95865201950072
3885,Ridgewood,Queens,11385,Onderdonk Ave & Gates Ave,40.70413,-73.90737
4052,Washington Heights,Manhattan,10032,Amsterdam Ave & W 162 St,40.83618,-73.939789
3793,Stuy Town,Manhattan,10009,Stuyvesant Walk & 1 Av Loop,40.732339777151054,-73.97898383438587
4048,Washington Heights,Manhattan,10032,St. Nicholas Ave & W 157 St,40.832314,-73.94102
3646,,Queens,11101,35 Ave & 10 St,40.76315481910373,-73.93985509872437
3932,Bronx County,The Bronx,10451,Grand Concourse & E 144 St,40.816576,-73.927987
3388,Carroll Gardens,Brooklyn,11231,President St & Henry St,40.6828003,-73.99990419
3394,,Brooklyn,11231,Columbia St & W 9 St,40.6769993,-74.00647134
3779,,Brooklyn,11237,Hart St & Wyckoff Ave,40.704876,-73.919911
3922,Bronx County,The Bronx,10454,Alexander Ave & E 134 St,40.807466,-73.927107
3787,,Brooklyn,11205,Dock 72 Way & Market St,40.69985,-73.97141
3917,Fort Greene,Brooklyn,11201,Willoughby St & Ashland Pl,40.69178,-73.97877
3886,Ridgewood,Queens,11385,Menahan St & Onderdonk Ave,40.70553,-73.9096
3949,Bronx County,The Bronx,10454,Brook Ave & E 138 St,40.807408,-73.91924
3704,Sunnyside,Queens,11101,47 Ave & Skillman Ave,40.7437524099784,-73.94176483154297
4073,Midtown,Manhattan,10111,W 51 St & Rockefeller Plaza,40.75969995906254,-73.97808194160461
3395,Red Hook,Brooklyn,11231,Henry St & W 9 St,40.6763744,-74.00324957
3844,Fresh Pond Junction,Queens,11385,Myrtle Ave & Linden St,40.69943,-73.91337
4087,Bronx County,The Bronx,10452,W 170 St & University Ave,40.84207,-73.926075
3756,,Brooklyn,11206,White St & Moore St,40.704508,-73.9351
4103,Bronx County,The Bronx,10452,Ogden Ave & W 165 St,40.834457,-73.928381
3337,Red Hook,Brooklyn,11231,Dwight St & Van Dyke St,40.67363551341504,-74.01195555925369
3843,Bushwick,Brooklyn,11237,Myrtle Ave & Grove St,40.69905,-73.91516
3875,Ridgewood,Queens,11385,Stephen St & Seneca Ave,40.6988,-73.9007
3989,Bronx County,The Bronx,10454,Willis Ave & E 137 St,40.808384,-73.923604
4072,Midtown,Manhattan,10036,W 48 St & Rockefeller Plaza,40.75793646243674,-73.97960275411606
3128,Long Island City,Queens,11101,21 St & 43 Ave,40.75052534,-73.94594845
3761,Bushwick,Brooklyn,11221,Cedar St & Myrtle Ave,40.697842,-73.926241
3907,Bushwick,Brooklyn,11206,Central Ave & Melrose St,40.70112,-73.93039
3546,Prospect Heights,Brooklyn,11238,Pacific St & Classon Ave,40.6791944,-73.9587903
3254,Nolan Park,Manhattan,10004,Soissons Landing,40.69231660719192,-74.01486575603485
3772,Williamsburg,Brooklyn,11211,Devoe St & Morgan Ave,40.713811,-73.93515
3982,Bronx County,The Bronx,10455,Bergen Ave & E 152 St,40.817166,-73.914737
3757,,Brooklyn,11206,Stagg St & Morgan Ave,40.710681,-73.93372
3975,Bronx County,The Bronx,10451,Brook Ave & E 157 St,40.820713,-73.911759
3976,Bronx County,The Bronx,10455,E 156 & Brook Ave,40.819823,-73.912411
4067,Washington Heights,Manhattan,10040,Amsterdam Ave & W 180 St,40.847396,-73.931205
3829,,Brooklyn,11207,Central Ave & Decatur St,40.6882,-73.90798
3836,Bushwick,Brooklyn,11221,Bushwick Ave & Linden St,40.69146,-73.92146
3958,,The Bronx,10454,Willis Ave & E 143 St,40.812299,-73.92037
3868,Bushwick,Brooklyn,11237,Knickerbocker Ave & Halsey St,40.693,-73.90824
3143,Upper East Side,Manhattan,10075,5 Ave & E 78 St,40.77632142182271,-73.96427392959595
3825,Ocean Hill,Brooklyn,11207,Broadway & Furman Ave,40.68139,-73.90756
3479,Nolan Park,Manhattan,10004,Picnic Point,40.68512559515415,-74.02535319328308
3727,Williamsburg,Brooklyn,11222,Frost St & Meeker Ave,40.71766197083994,-73.94880026578903
3826,,Brooklyn,11207,Moffat St & Bushwick,40.68458,-73.90925
3956,Bronx County,The Bronx,10454,St. Ann's Ave & E 144 St,40.811112,-73.914932
3961,Bronx County,The Bronx,10451,Morris Ave & E 153 St,40.820036,-73.921411
3944,Sugar Hill,Manhattan,10031,Convent Ave & W 135 St,40.818215,-73.950988
3121,Long Island City,Queens,11101,Jackson Ave & 46 Rd,40.74524768,-73.94733276
4066,Washington Heights,Manhattan,10033,Audobon Ave & W 179 St,40.847305,-73.933291
4082,Bronx County,The Bronx,10452,Gerard Ave & McClellan St,40.833909,-73.92112
3931,Bronx County,The Bronx,10451,Morris Ave & E 142 St,40.814469,-73.924963
3865,Ridgewood,Brooklyn,11207,Knickerbocker Ave & Cooper St,40.69081,-73.90448
4125,Bronx County,The Bronx,10451,E 161 St & River Ave,40.827883,-73.927111
3899,Greenpoint,Brooklyn,11222,Manhattan Av & Leonard St,40.72084,-73.94844
3983,Bronx County,The Bronx,10455,Westchester Ave & E 156 St,40.817802,-73.905203
3437,Upper West Side,Manhattan,10024,Riverside Dr & W 91 St,40.79313480986663,-73.97700369358063
3952,Bronx County,The Bronx,10454,E 141 St & Jackson Ave,40.806896,-73.911837
4005,Sugar Hill,Manhattan,10031,St. Nicholas Terrace & Convent Ave,40.821294,-73.947868
3947,Bronx County,The Bronx,10454,E 138 St & Willow Ave,40.804168,-73.911545
3925,Bronx County,The Bronx,10451,E 138 St & Canal St W,40.812304,-73.929153
3972,Bronx County,The Bronx,10451,E 158 St & Melrose Ave,40.822215,-73.914688
4098,Bronx County,The Bronx,10452,Shakespeare Ave & W 169 St,40.839312,-73.922423
2005,,Brooklyn,11251,Railroad Ave & Kay Ave,40.70531194,-73.97100056
3901,Ridgewood,Queens,11237,Stanhope St & Fairview Ave,40.70998,-73.91116
3853,,Brooklyn,11237,Harrison Pl & Porter Ave,40.70686,-73.92851
4086,Bronx County,The Bronx,10452,Inwood Ave & W 170 St,40.840536,-73.919228
3969,Bronx County,The Bronx,10455,St Ann's Ave & Westchester Ave,40.815887,-73.911918
3567,,Queens,11106,11 St & 35 Ave,40.7627442,-73.9391141
3948,Bronx County,The Bronx,10454,E 138 St & Cypress Ave,40.805559,-73.914718
4074,Washington Heights,Manhattan,10032,Edgecombe Ave & W 167 St,40.838191,-73.936085
4069,Hudson Heights,Manhattan,10033,Cabrini Blvd & W 177 St,40.848282,-73.941343
3872,Ridgewood,Brooklyn,11385,Hancock St & Wyckoff Ave,40.6972,-73.90674
3816,,Brooklyn,11211,Metropolitan Ave & Vandervoort Ave,40.71429,-73.93323
3941,Bronx County,The Bronx,10454,Walnut Ave & E 136 St,40.801657,-73.909513
4084,Bronx County,The Bronx,10456,Sheridan Ave & E 168 St,40.835334,-73.9154
3937,Bronx County,The Bronx,10454,E 135 St & St Ann's Ave,40.805089,-73.918889
3965,Bronx County,The Bronx,10455,E 149 St & Eagle Ave,40.814046,-73.91186
3596,Crown Heights,Brooklyn,11225,Sullivan Pl & Bedford Ave,40.6642406,-73.9574686
3851,,Brooklyn,11415,Metropolitan Ave & Stewart Ave,40.71401,-73.92793
4064,Bronx County,The Bronx,10454,Southern Blvd & E 142 St,40.807347437082,-73.90809774398804
4021,Bronx County,The Bronx,10454,E 138 St & Grand Concourse,40.813224,-73.930605
3333,,Brooklyn,11231,Columbia St & Lorraine St,40.6747055,-74.0075572
4092,Bronx County,The Bronx,10452,Jerome Ave & Anderson Ave,40.830179,-73.928747
483,East Village,Manhattan,10009,E 12 St & 3 Ave,40.73223272,-73.98889957
3244,Greenwich Village,Manhattan,10003,University Pl & E 8 St,40.73143724085228,-73.99490341544151
280,Greenwich Village,Manhattan,10009,E 10 St & 5 Ave,40.73331967,-73.99510132
4121,Murray Hill,Manhattan,10017,1 Ave & E 39 St,40.74714,-73.97113
4101,Bronx County,The Bronx,10451,E 153 St & E 157 St,40.826677,-73.929327
4130,Bronx County,The Bronx,10456,Morris Ave & McClellan St,40.831584,-73.9149
4102,Bronx County,The Bronx,10452,Grand Concourse & E 164 St,40.829608,-73.921461
3557,,Queens,11101,40 Ave & 9 St,40.75742,-73.945133
4050,Washington Heights,Manhattan,10032,W 159 St & Edgecombe Ave,40.833303,-73.939326
4127,Bronx County,The Bronx,10452,Ogden Ave & Merriam Ave,40.839142,-73.925961
4128,Bronx County,The Bronx,10456,College Ave & E 170 St,40.837576,-73.910489
4094,Bronx County,The Bronx,10451,Park Ave & E 162 St,40.825716,-73.915585
4120,Murray Hill,Manhattan,10016,E 39 St & Lexington Ave,40.7494985460252,-73.97729203113158
4108,Bronx County,The Bronx,10457,Clay Ave & E 173 St,40.843264,-73.904867
4083,Bronx County,The Bronx,10452,Walton Ave & E 168 St,40.83649,-73.918316
4093,Bronx County,The Bronx,10451,Grand Concourse & E 161 St,40.827115,-73.92272
3691,,Queens,11103,28 Ave & 44 St,40.76408932350688,-73.91065120697021
4118,Financial District,Manhattan,10045,Liberty St & Nassau St,40.70858894240581,-74.00935482235809
4091,Bronx County,The Bronx,10452,Jerome Ave & Ogden Ave,40.829797,-73.931015
4132,Bronx County,The Bronx,10455,Southern Blvd & Avenue St. John,40.812769,-73.901583
4134,Bronx County,The Bronx,10455,Longwood Ave & Southern Blvd,40.816343,-73.896447
4133,Bronx County,The Bronx,10455,Beck St & Leggett Ave,40.815077,-73.899939
3462,Turtle Bay,Manhattan,10017,E 44 St & 2 Ave,40.75118387463277,-73.97138714790344
4141,Bronx County,The Bronx,10459,Southern Blvd & Tiffany St,40.818185,-73.894143
4135,Bronx County,The Bronx,10459,Westchester Ave & Longwood Ave,40.819701,-73.901311
4030,Bronx County,The Bronx,10451,Courtlandt Ave & E 157 St,40.822267,-73.916792
3436,Tribeca,Manhattan,10013,Greenwich St & Hubert St,40.721319,-74.010065
4131,Bronx County,The Bronx,10452,Goble Pl & Macombs Rd,40.844075,-73.917256
4147,Bronx County,The Bronx,10459,E 163 St & Tiffany St,40.821075,-73.895069
4166,Bronx County,The Bronx,10451,River Ave & E 153 St,40.82441,-73.92818
4105,Bronx County,The Bronx,10451,Concourse Village West & E 156 St,40.823162,-73.923267
4154,Bronx County,The Bronx,10474,Faile St & Garrison Ave,40.820578,-73.888271
4148,Bronx County,The Bronx,10459,Intervale Ave & Westchester Ave,40.821967,-73.896752
3226,Upper West Side,Manhattan,10024,W 82 St & Central Park West,40.78275,-73.97137
4017,East Harlem,Manhattan,10037,E 138 St & 5 Av,40.81449,-73.936153
3914,Upper West Side,Manhattan,10024,West End Ave & W 78 St,40.783786,-73.981687
4167,Bronx County,The Bronx,10453,Grand Concourse & East Mount Eden Ave,40.84301,-73.91172
4188,Washington Heights,Manhattan,10032,Broadway & W 155 St,40.83299,-73.94592
4139,,The Bronx,10456,Tinton Ave & E 165 St,40.824796,-73.90242
4137,Bronx County,The Bronx,10456,3 Ave & E 163 St,40.823872,-73.908699
4155,Bronx County,The Bronx,10459,E 169 St & Fox St,40.827184,-73.893721
4151,Bronx County,The Bronx,10456,3 Ave & E 169 St,40.832678,-73.905158
4162,Bronx County,The Bronx,10460,Southern Blvd & E 172 St,40.834124,-73.88955
4158,Bronx County,The Bronx,10459,Freeman St & Reverend James A Polite Ave,40.830529,-73.894717
3102,Greenpoint,Brooklyn,11211,Driggs Ave & Lorimer St,40.72179134,-73.9504154
4193,Hudson Heights,Manhattan,10033,W 181 St & Riverside Dr,40.85168,-73.94186
119,Fort Greene,Brooklyn,11251,Park Ave & St Edwards St,40.69608941,-73.97803415
4129,Bronx County,The Bronx,10452,Anderson Ave & W 164 St,40.832057,-73.927421
3118,,Brooklyn,11109,McGuinness Blvd & Eagle St,40.73555,-73.95284
4078,Bronx County,The Bronx,10451,Concourse Village East & E 158 St,40.823732,-73.919379
4156,Bronx County,The Bronx,10456,Fulton Ave & St. Paul's Pl,40.83545,-73.90153
4199,Bronx County,The Bronx,10452,River Ave & McClellan St,40.83406,-73.92243
4138,Bronx County,The Bronx,10456,3 Ave & Franklin Ave,40.82696,-73.907451
3813,Chelsea,Manhattan,10011,W 20 St & 10 Ave,40.745686,-74.005141
4152,Bronx County,The Bronx,10456,Fulton Ave & E 168 St,40.830471,-73.904556
4174,Bronx County,The Bronx,10456,3 Ave & E 170 St,40.834857,-73.903743
4117,Crown Heights,Brooklyn,11225,Sullivan Pl & Franklin Ave,40.66407983678161,-73.96025128666679
4150,,The Bronx,10456,E 170 St & Webster Ave,40.836103,-73.907199
4126,Bronx County,The Bronx,10451,E 157 St & River Ave,40.825737,-73.927311
3340,,Brooklyn,11231,Wolcott St & Dwight St,40.6753274,-74.0100698
3635,Hudson Yards,Manhattan,10018,W 36 St & 9 Ave,40.75462324029105,-73.99516761302948
3382,Carroll Gardens,Brooklyn,11231,Carroll St & Smith St,40.680611,-73.99475825
3086,,Brooklyn,11211,Graham Ave & Conselyea St,40.715143,-73.944507
389,,Brooklyn,11207,Broadway & Berry St,40.71044554,-73.96525063
471,Williamsburg,Brooklyn,11211,Grand St & Havemeyer St,40.71286844,-73.95698119
4169,Bronx County,The Bronx,10457,Morris Ave & E 171 St,40.83899,-73.9109
4201,Bronx County,The Bronx,10457,Clay Ave & Claremont Pkwy,40.83999,-73.90549
72,Hell's Kitchen,Manhattan,10019,W 52 St & 11 Ave,40.76727216,-73.99392888
3322,Park Slope,Brooklyn,11215,12 St & 4 Ave,40.668603,-73.9904394
3346,Park Slope,Brooklyn,11217,Berkeley Pl & 7 Ave,40.675146838709786,-73.97523209452629
4159,Bronx County,The Bronx,10457,3 Ave & E 172 St,40.839586,-73.900277
4161,Bronx County,The Bronx,10457,3 Ave & E 174 St,40.84224,-73.8985
4202,Bronx County,The Bronx,10459,Dawson St & Intervale Ave,40.819999,-73.897263
4140,Bronx County,The Bronx,10459,E 163 St & Union Ave,40.822545,-73.901824
4195,Bronx County,The Bronx,10456,E 167 St & Clay Ave,40.83094,-73.91125
